{"type":"FeatureCollection","properties":{"source":"Natural Earth 1:10m land (public domain), clipped to 60-80E 5-30N, split into 1-degree tiles"},"features":[{"type":"Feature","properties":{},"geometry":{"type":"Polygon","coordinates":[[[61.0,25.2144],[60.617,25.2832],[60.6323,25.2961],[60.6082,25.3276],[60.6016,25.406],[60.5497,25.4469],[60.5142,25.4473],[60.4456,25.4282],[60.4285,25.4196],[60.3953,25.3779],[60.402,25.3447],[60.4377,25.3339],[60.4522,25.3174],[60.4411,25.3166],[60.4701,25.3031],[60.4672,25.2903],[60.3626,25.3306],[60.3192,25.3299],[60.2903,25.3513],[60.304,25.3712],[60.2894,25.3772],[60.2015,25.3712],[60.1926,25.3561],[60.216,25.3383],[60.2092,25.3197],[60.182,25.3199],[60.1619,25.332],[60.1167,25.3398],[60.082,25.366],[60.0,25.3576],[60.0,26.0],[61.0,26.0],[61.0,25.2144]]]}},{"type":"Feature","properties":{},"geometry":{"type":"Polygon","coordinates":[[[60.0,27.0],[61.0,27.0],[61.0,26.0],[60.0,26.0],[60.0,27.0]]]}},{"type":"Feature","properties":{},"geometry":{"type":"Polygon","coordinates":[[[60.0,28.0],[61.0,28.0],[61.0,27.0],[60.0,27.0],[60.0,28.0]]]}},{"type":"Feature","properties":{},"geometry":{"type":"Polygon","coordinates":[[[60.0,29.0],[61.0,29.0],[61.0,28.0],[60.0,28.0],[60.0,29.0]]]}},{"type":"Feature","properties":{},"geometry":{"type":"Polygon","coordinates":[[[60.0,30.0],[61.0,30.0],[61.0,29.0],[60.0,29.0],[60.0,30.0]]]}},{"type":"Feature","properties":{},"geometry":{"type":"Polygon","coordinates":[[[62.0,25.1069],[61.8811,25.103],[61.8473,25.0379],[61.7549,25.0135],[61.7296,25.0218],[61.7201,25.0374],[61.7358,25.0695],[61.7285,25.0831],[61.76,25.1154],[61.7668,25.1457],[61.7837,25.1732],[61.7831,25.188],[61.7495,25.1732],[61.6942,25.2005],[61.5882,25.2021],[61.5798,25.2335],[61.5545,25.2541],[61.5447,25.2483],[61.5373,25.2204],[61.5584,25.2005],[61.5042,25.2088],[61.4826,25.1937],[61.5242,25.1732],[61.4895,25.1186],[61.4206,25.0969],[61.4351,25.0877],[61.4117,25.0594],[61.1851,25.1232],[61.1855,25.1396],[61.1703,25.1644],[61.0,25.2144],[61.0,26.0],[62.0,26.0],[62.0,25.1069]]]}},{"type":"Feature","properties":{},"geometry":{"type":"Polygon","coordinates":[[[61.0,26.0],[61.0,27.0],[62.0,27.0],[62.0,26.0],[61.0,26.0]]]}},{"type":"Feature","properties":{},"geometry":{"type":"Polygon","coordinates":[[[61.0,27.0],[61.0,28.0],[62.0,28.0],[62.0,27.0],[61.0,27.0]]]}},{"type":"Feature","properties":{},"geometry":{"type":"Polygon","coordinates":[[[61.0,28.0],[61.0,29.0],[62.0,29.0],[62.0,28.0],[61.0,28.0]]]}},{"type":"Feature","properties":{},"geometry":{"type":"Polygon","coordinates":[[[62.0,30.0],[62.0,29.0],[61.0,29.0],[61.0,30.0],[62.0,30.0]]]}},{"type":"Feature","properties":{},"geometry":{"type":"Polygon","coordinates":[[[63.0,25.2228],[62.7705,25.2619],[62.605,25.266],[62.4772,25.2591],[62.465,25.2372],[62.4676,25.2235],[62.4894,25.2142],[62.4695,25.2067],[62.4443,25.2139],[62.4138,25.2065],[62.3659,25.1794],[62.3431,25.1555],[62.3391,25.1247],[62.352,25.1128],[62.3872,25.1016],[62.3811,25.0876],[62.29,25.09],[62.2561,25.0986],[62.2908,25.1247],[62.3153,25.1302],[62.3181,25.1418],[62.2975,25.1851],[62.2542,25.212],[62.1452,25.2184],[62.08,25.1972],[62.059,25.1616],[62.0731,25.1506],[62.0778,25.1277],[62.0972,25.1071],[62.0756,25.1007],[62.0,25.1069],[62.0,26.0],[63.0,26.0],[63.0,25.2228]]]}},{"type":"Feature","properties":{},"geometry":{"type":"Polygon","coordinates":[[[62.0,26.0],[62.0,27.0],[63.0,27.0],[63.0,26.0],[62.0,26.0]]]}},{"type":"Feature","properties":{},"geometry":{"type":"Polygon","coordinates":[[[62.0,27.0],[62.0,28.0],[63.0,28.0],[63.0,27.0],[62.0,27.0]]]}},{"type":"Feature","properties":{},"geometry":{"type":"Polygon","coordinates":[[[62.0,28.0],[62.0,29.0],[63.0,29.0],[63.0,28.0],[62.0,28.0]]]}},{"type":"Feature","properties":{},"geometry":{"type":"Polygon","coordinates":[[[63.0,30.0],[63.0,29.0],[62.0,29.0],[62.0,30.0],[63.0,30.0]]]}},{"type":"Feature","properties":{},"geometry":{"type":"Polygon","coordinates":[[[64.0,25.4301],[63.9766,25.4128],[63.9971,25.4196],[64.0,25.4125],[64.0,25.3388],[63.9697,25.3445],[63.9441,25.3349],[63.9066,25.3412],[63.8049,25.375],[63.7378,25.3853],[63.6699,25.3836],[63.5725,25.365],[63.5376,25.3445],[63.4958,25.2914],[63.4852,25.2843],[63.4695,25.2893],[63.4817,25.2602],[63.5187,25.2209],[63.5117,25.2003],[63.5005,25.1937],[63.4111,25.2225],[63.377,25.2278],[63.3081,25.2204],[63.1785,25.258],[63.1441,25.2609],[63.1131,25.2551],[63.051,25.2242],[63.0,25.2228],[63.0,26.0],[64.0,26.0],[64.0,25.4301]]]}},{"type":"Feature","properties":{},"geometry":{"type":"Polygon","coordinates":[[[63.0,26.0],[63.0,27.0],[64.0,27.0],[64.0,26.0],[63.0,26.0]]]}},{"type":"Feature","properties":{},"geometry":{"type":"Polygon","coordinates":[[[63.0,27.0],[63.0,28.0],[64.0,28.0],[64.0,27.0],[63.0,27.0]]]}},{"type":"Feature","properties":{},"geometry":{"type":"Polygon","coordinates":[[[63.0,28.0],[63.0,29.0],[64.0,29.0],[64.0,28.0],[63.0,28.0]]]}},{"type":"Feature","properties":{},"geometry":{"type":"Polygon","coordinates":[[[64.0,30.0],[64.0,29.0],[63.0,29.0],[63.0,30.0],[64.0,30.0]]]}},{"type":"Feature","properties":{},"geometry":{"type":"Polygon","coordinates":[[[65.0,25.3166],[64.8897,25.3284],[64.8611,25.3166],[64.8073,25.3285],[64.7444,25.324],[64.7185,25.3144],[64.6786,25.2768],[64.6628,25.2291],[64.6686,25.2067],[64.7092,25.1907],[64.7102,25.1794],[64.655,25.1657],[64.6004,25.1732],[64.627,25.2116],[64.6277,25.2285],[64.6106,25.2517],[64.5654,25.2703],[64.5184,25.2756],[64.492,25.2457],[64.4393,25.2346],[64.4175,25.2409],[64.3607,25.283],[64.2658,25.2987],[64.2446,25.3166],[64.1839,25.3187],[64.0945,25.3359],[64.1069,25.3854],[64.0835,25.4035],[64.0838,25.4267],[64.1062,25.4333],[64.1409,25.4289],[64.1509,25.4321],[64.1553,25.4469],[64.1273,25.4538],[64.0565,25.4417],[64.0454,25.4503],[64.0,25.4301],[64.0,26.0],[65.0,26.0],[65.0,25.3166]]]}},{"type":"Feature","properties":{},"geometry":{"type":"Polygon","coordinates":[[[64.0,25.4125],[64.0117,25.3973],[64.0352,25.4162],[64.0488,25.4165],[64.0796,25.365],[64.0667,25.3463],[64.0,25.3388],[64.0,25.4125]]]}},{"type":"Feature","properties":{},"geometry":{"type":"Polygon","coordinates":[[[64.0,26.0],[64.0,27.0],[65.0,27.0],[65.0,26.0],[64.0,26.0]]]}},{"type":"Feature","properties":{},"geometry":{"type":"Polygon","coordinates":[[[64.0,27.0],[64.0,28.0],[65.0,28.0],[65.0,27.0],[64.0,27.0]]]}},{"type":"Feature","properties":{},"geometry":{"type":"Polygon","coordinates":[[[64.0,28.0],[64.0,29.0],[65.0,29.0],[65.0,28.0],[64.0,28.0]]]}},{"type":"Feature","properties":{},"geometry":{"type":"Polygon","coordinates":[[[65.0,30.0],[65.0,29.0],[64.0,29.0],[64.0,30.0],[65.0,30.0]]]}},{"type":"Feature","properties":{},"geometry":{"type":"Polygon","coordinates":[[[66.0,25.429],[65.8584,25.4175],[65.7654,25.378],[65.7244,25.3712],[65.6521,25.3445],[65.4678,25.3854],[65.4007,25.3667],[65.3823,25.3712],[65.3954,25.3923],[65.3362,25.3853],[65.2923,25.365],[65.2598,25.3804],[65.2323,25.3707],[65.188,25.311],[65.1553,25.2961],[65.0588,25.3145],[65.0,25.3166],[65.0,26.0],[66.0,26.0],[66.0,25.429]]]}},{"type":"Feature","properties":{},"geometry":{"type":"Polygon","coordinates":[[[65.0,26.0],[65.0,27.0],[66.0,27.0],[66.0,26.0],[65.0,26.0]]]}},{"type":"Feature","properties":{},"geometry":{"type":"Polygon","coordinates":[[[65.0,27.0],[65.0,28.0],[66.0,28.0],[66.0,27.0],[65.0,27.0]]]}},{"type":"Feature","properties":{},"geometry":{"type":"Polygon","coordinates":[[[65.0,28.0],[65.0,29.0],[66.0,29.0],[66.0,28.0],[65.0,28.0]]]}},{"type":"Feature","properties":{},"geometry":{"type":"Polygon","coordinates":[[[66.0,30.0],[66.0,29.0],[65.0,29.0],[65.0,30.0],[66.0,30.0]]]}},{"type":"Feature","properties":{},"geometry":{"type":"Polygon","coordinates":[[[67.0,24.816],[66.9577,24.8436],[66.9651,24.81],[66.9412,24.8126],[66.8821,24.851],[66.8538,24.8522],[66.8025,24.8395],[66.7796,24.851],[66.6797,24.8306],[66.6541,24.8392],[66.6567,24.8587],[66.677,24.8795],[66.7044,24.892],[66.7044,24.8989],[66.6813,24.9105],[66.6918,25.0],[67.0,25.0],[67.0,24.816]]]}},{"type":"Feature","properties":{},"geometry":{"type":"Polygon","coordinates":[[[66.6918,25.0],[66.7044,25.1043],[66.738,25.1595],[66.7372,25.1811],[66.7175,25.2312],[66.5479,25.3656],[66.5537,25.3854],[66.5793,25.3794],[66.5912,25.3996],[66.5871,25.4262],[66.5505,25.4571],[66.531,25.5181],[66.5127,25.5084],[66.5059,25.522],[66.4928,25.5181],[66.4779,25.5493],[66.437,25.5977],[66.3877,25.5924],[66.3726,25.6039],[66.3755,25.6257],[66.3386,25.6081],[66.3032,25.6046],[66.2581,25.612],[66.2398,25.5999],[66.2039,25.5932],[66.1672,25.5661],[66.1374,25.5138],[66.1096,25.4954],[66.0944,25.4748],[66.2131,25.4914],[66.2415,25.5185],[66.2588,25.5248],[66.2581,25.5431],[66.3364,25.5534],[66.3527,25.5355],[66.3885,25.522],[66.4232,25.481],[66.4562,25.496],[66.4758,25.4933],[66.4922,25.481],[66.4575,25.4538],[66.4979,25.4305],[66.5116,25.4142],[66.4984,25.3985],[66.3595,25.4652],[66.3119,25.4749],[66.2787,25.4674],[66.2518,25.4729],[66.1592,25.4469],[66.069,25.4462],[66.0,25.429],[66.0,26.0],[67.0,26.0],[67.0,25.0],[66.6918,25.0]]]}},{"type":"Feature","properties":{},"geometry":{"type":"Polygon","coordinates":[[[66.0,26.0],[66.0,27.0],[67.0,27.0],[67.0,26.0],[66.0,26.0]]]}},{"type":"Feature","properties":{},"geometry":{"type":"Polygon","coordinates":[[[66.0,27.0],[66.0,28.0],[67.0,28.0],[67.0,27.0],[66.0,27.0]]]}},{"type":"Feature","properties":{},"geometry":{"type":"Polygon","coordinates":[[[66.0,28.0],[66.0,29.0],[67.0,29.0],[67.0,28.0],[66.0,28.0]]]}},{"type":"Feature","properties":{},"geometry":{"type":"Polygon","coordinates":[[[67.0,30.0],[67.0,29.0],[66.0,29.0],[66.0,30.0],[67.0,30.0]]]}},{"type":"Feature","properties":{},"geometry":{"type":"Polygon","coordinates":[[[68.0,23.8],[67.9942,23.8112],[67.9719,23.8021],[67.9509,23.8089],[67.9343,23.833],[67.9099,23.8362],[67.8999,23.8676],[67.8919,23.8696],[67.8689,23.8505],[67.8633,23.9028],[67.8552,23.9119],[67.8317,23.8095],[67.7732,23.8211],[67.7186,23.8437],[67.7411,23.8231],[67.7437,23.8088],[67.7323,23.7952],[67.6316,23.8035],[67.6307,23.8248],[67.6566,23.9194],[67.6504,23.9331],[67.638,23.9159],[67.6374,23.8743],[67.6292,23.8567],[67.6145,23.8501],[67.5894,23.8665],[67.5884,23.8847],[67.5746,23.8718],[67.5466,23.8983],[67.5326,23.8992],[67.5301,23.8913],[67.5466,23.871],[67.4911,23.8831],[67.4785,23.8915],[67.5125,23.8983],[67.5405,23.9393],[67.509,23.9232],[67.4989,23.9256],[67.5064,23.974],[67.4512,23.9877],[67.4573,24.0],[68.0,24.0],[68.0,23.8]]]}},{"type":"Feature","properties":{},"geometry":{"type":"Polygon","coordinates":[[[67.4573,24.0],[67.4782,24.0324],[67.4922,24.028],[67.5199,24.0451],[67.5331,24.0703],[67.5098,24.0521],[67.4407,24.0703],[67.354,24.0709],[67.3413,24.0864],[67.3371,24.119],[67.2956,24.1992],[67.2923,24.2619],[67.2791,24.2812],[67.2928,24.303],[67.286,24.3296],[67.3059,24.3428],[67.3625,24.3439],[67.3254,24.3576],[67.283,24.3576],[67.2717,24.3691],[67.2866,24.4395],[67.2588,24.4191],[67.2468,24.468],[67.2109,24.5084],[67.2308,24.5251],[67.2267,24.5324],[67.2041,24.5351],[67.1946,24.5473],[67.1836,24.5903],[67.2181,24.5824],[67.2526,24.5903],[67.209,24.6138],[67.1521,24.6157],[67.157,24.6629],[67.1755,24.6887],[67.2555,24.748],[67.2327,24.7707],[67.1673,24.7602],[67.156,24.7916],[67.1397,24.8033],[67.0999,24.7971],[67.0812,24.8033],[67.0737,24.7958],[67.0825,24.7742],[67.023,24.81],[67.0,24.816],[67.0,25.0],[68.0,25.0],[68.0,24.0],[67.4573,24.0]]]}},{"type":"Feature","properties":{},"geometry":{"type":"Polygon","coordinates":[[[67.3904,24.0493],[67.458,24.0627],[67.4853,24.0485],[67.4652,24.0406],[67.4539,24.0134],[67.4269,24.0075],[67.3934,24.0281],[67.3755,24.0627],[67.3904,24.0493]]]}},{"type":"Feature","properties":{},"geometry":{"type":"Polygon","coordinates":[[[67.0,25.0],[67.0,26.0],[68.0,26.0],[68.0,25.0],[67.0,25.0]]]}},{"type":"Feature","properties":{},"geometry":{"type":"Polygon","coordinates":[[[67.0,26.0],[67.0,27.0],[68.0,27.0],[68.0,26.0],[67.0,26.0]]]}},{"type":"Feature","properties":{},"geometry":{"type":"Polygon","coordinates":[[[67.0,27.0],[67.0,28.0],[68.0,28.0],[68.0,27.0],[67.0,27.0]]]}},{"type":"Feature","properties":{},"geometry":{"type":"Polygon","coordinates":[[[67.0,28.0],[67.0,29.0],[68.0,29.0],[68.0,28.0],[67.0,28.0]]]}},{"type":"Feature","properties":{},"geometry":{"type":"Polygon","coordinates":[[[68.0,30.0],[68.0,29.0],[67.0,29.0],[67.0,30.0],[68.0,30.0]]]}},{"type":"Feature","properties":{},"geometry":{"type":"Polygon","coordinates":[[[69.0,22.1981],[68.9446,22.2951],[68.944,22.3183],[68.9606,22.3495],[68.9744,22.4047],[69.0,22.4372],[69.0,22.1981]]]}},{"type":"Feature","properties":{},"geometry":{"type":"Polygon","coordinates":[[[68.9161,23.0],[69.0,23.0],[69.0,22.9665],[68.9161,23.0]]]}},{"type":"Feature","properties":{},"geometry":{"type":"Polygon","coordinates":[[[68.8662,23.02],[68.6541,23.1578],[68.6497,23.1809],[68.6226,23.1916],[68.5999,23.225],[68.5957,23.2404],[68.6094,23.2267],[68.6231,23.2676],[68.5778,23.2553],[68.5523,23.2597],[68.541,23.2782],[68.561,23.3161],[68.5991,23.3223],[68.6069,23.3256],[68.603,23.3328],[68.5711,23.3464],[68.561,23.3639],[68.541,23.357],[68.5207,23.3692],[68.5151,23.3993],[68.5296,23.4119],[68.541,23.4117],[68.5301,23.4257],[68.5132,23.4185],[68.5015,23.4233],[68.4905,23.4093],[68.4754,23.4049],[68.4626,23.4091],[68.4588,23.4198],[68.4655,23.4458],[68.4404,23.4343],[68.4237,23.4458],[68.4474,23.4875],[68.4858,23.5141],[68.4813,23.5251],[68.4587,23.5215],[68.4373,23.5488],[68.447,23.503],[68.4312,23.4936],[68.4116,23.4947],[68.4061,23.5087],[68.4089,23.6213],[68.4275,23.6314],[68.4915,23.6188],[68.4927,23.6376],[68.4688,23.6408],[68.4694,23.6592],[68.5335,23.6792],[68.5835,23.7353],[68.6379,23.7615],[68.6546,23.7991],[68.6707,23.8157],[68.7256,23.8189],[68.8216,23.8784],[68.8057,23.8844],[68.78,23.8741],[68.7669,23.8784],[68.7178,23.841],[68.6335,23.8331],[68.5989,23.7819],[68.5547,23.7685],[68.51,23.7441],[68.4728,23.7375],[68.4277,23.7143],[68.342,23.624],[68.353,23.6107],[68.3273,23.5869],[68.1814,23.5941],[68.1434,23.6127],[68.1501,23.6314],[68.1743,23.6314],[68.1843,23.6519],[68.2093,23.6627],[68.2327,23.645],[68.2451,23.6591],[68.2759,23.6658],[68.2804,23.686],[68.241,23.674],[68.2088,23.6962],[68.1975,23.7145],[68.1978,23.7748],[68.1681,23.7475],[68.166,23.7732],[68.1831,23.8435],[68.1575,23.9051],[68.1575,23.8642],[68.1706,23.8399],[68.1433,23.7611],[68.1575,23.6962],[68.1491,23.6945],[68.1022,23.7338],[68.0989,23.7093],[68.0817,23.7087],[68.0628,23.7231],[68.0539,23.7437],[68.0744,23.7648],[68.0817,23.8056],[68.1022,23.8095],[68.1022,23.8157],[68.0594,23.8619],[68.0539,23.8847],[68.0637,23.9232],[68.0477,23.9212],[68.0135,23.9393],[68.0539,23.8294],[68.0244,23.7746],[68.0135,23.7685],[68.008,23.7742],[68.0,23.8],[68.0,24.0],[69.0,24.0],[69.0,23.0],[68.9161,23.0],[68.8662,23.02]]]}},{"type":"Feature","properties":{},"geometry":{"type":"Polygon","coordinates":[[[68.0,24.0],[68.0,25.0],[69.0,25.0],[69.0,24.0],[68.0,24.0]]]}},{"type":"Feature","properties":{},"geometry":{"type":"Polygon","coordinates":[[[68.0,25.0],[68.0,26.0],[69.0,26.0],[69.0,25.0],[68.0,25.0]]]}},{"type":"Feature","properties":{},"geometry":{"type":"Polygon","coordinates":[[[68.0,26.0],[68.0,27.0],[69.0,27.0],[69.0,26.0],[68.0,26.0]]]}},{"type":"Feature","properties":{},"geometry":{"type":"Polygon","coordinates":[[[68.0,27.0],[68.0,28.0],[69.0,28.0],[69.0,27.0],[68.0,27.0]]]}},{"type":"Feature","properties":{},"geometry":{"type":"Polygon","coordinates":[[[68.0,28.0],[68.0,29.0],[69.0,29.0],[69.0,28.0],[68.0,28.0]]]}},{"type":"Feature","properties":{},"geometry":{"type":"Polygon","coordinates":[[[69.0,30.0],[69.0,29.0],[68.0,29.0],[68.0,30.0],[69.0,30.0]]]}},{"type":"Feature","properties":{},"geometry":{"type":"Polygon","coordinates":[[[70.0,21.2192],[69.845,21.3896],[69.8147,21.4337],[69.8086,21.4658],[69.7887,21.4693],[69.7564,21.4904],[69.6297,21.616],[69.5682,21.6501],[69.4994,21.7202],[69.4785,21.7526],[69.4274,21.7812],[69.3977,21.8153],[69.3909,21.8767],[69.3678,21.8561],[69.3555,21.8532],[69.3362,21.8625],[69.1827,22.0],[70.0,22.0],[70.0,21.2192]]]}},{"type":"Feature","properties":{},"geometry":{"type":"Polygon","coordinates":[[[69.1506,22.0412],[69.103,22.0764],[69.0482,22.1579],[69.0,22.1981],[69.0,22.4372],[69.0075,22.4432],[69.0736,22.4819],[69.0852,22.4729],[69.0823,22.4595],[69.0482,22.4316],[69.0718,22.3995],[69.0974,22.3989],[69.1227,22.4111],[69.147,22.4049],[69.1786,22.4276],[69.1882,22.4264],[69.2022,22.4149],[69.2057,22.3987],[69.1821,22.3664],[69.1853,22.3497],[69.1697,22.3279],[69.1738,22.3083],[69.2121,22.2814],[69.2121,22.2739],[69.2865,22.2846],[69.3357,22.3061],[69.3464,22.3249],[69.3599,22.3292],[69.4354,22.3304],[69.4797,22.3422],[69.5027,22.3723],[69.5199,22.3776],[69.5256,22.3921],[69.5137,22.4316],[69.516,22.4481],[69.5479,22.4521],[69.5617,22.3916],[69.5547,22.3776],[69.6161,22.3559],[69.6297,22.3838],[69.6404,22.376],[69.6694,22.4092],[69.6994,22.4043],[69.7334,22.48],[69.7887,22.4232],[69.807,22.421],[69.8333,22.4638],[69.8848,22.4736],[69.9621,22.5353],[70.0,22.5424],[70.0,22.0],[69.1827,22.0],[69.1506,22.0412]]]}},{"type":"Feature","properties":{},"geometry":{"type":"Polygon","coordinates":[[[69.9969,22.8938],[69.9407,22.8861],[69.8068,22.8453],[69.7601,22.8083],[69.7289,22.7548],[69.7158,22.7469],[69.6538,22.7605],[69.5857,22.7612],[69.557,22.7785],[69.5,22.7817],[69.3381,22.8331],[69.2388,22.8419],[69.2019,22.8522],[69.0399,22.9505],[69.0,22.9665],[69.0,23.0],[70.0,23.0],[69.9969,22.8938]]]}},{"type":"Feature","properties":{},"geometry":{"type":"Polygon","coordinates":[[[69.0,23.0],[69.0,24.0],[70.0,24.0],[70.0,23.0],[69.0,23.0]]]}},{"type":"Feature","properties":{},"geometry":{"type":"Polygon","coordinates":[[[69.0,24.0],[69.0,25.0],[70.0,25.0],[70.0,24.0],[69.0,24.0]]]}},{"type":"Feature","properties":{},"geometry":{"type":"Polygon","coordinates":[[[69.0,25.0],[69.0,26.0],[70.0,26.0],[70.0,25.0],[69.0,25.0]]]}},{"type":"Feature","properties":{},"geometry":{"type":"Polygon","coordinates":[[[69.0,26.0],[69.0,27.0],[70.0,27.0],[70.0,26.0],[69.0,26.0]]]}},{"type":"Feature","properties":{},"geometry":{"type":"Polygon","coordinates":[[[69.0,27.0],[69.0,28.0],[70.0,28.0],[70.0,27.0],[69.0,27.0]]]}},{"type":"Feature","properties":{},"geometry":{"type":"Polygon","coordinates":[[[69.0,28.0],[69.0,29.0],[70.0,29.0],[70.0,28.0],[69.0,28.0]]]}},{"type":"Feature","properties":{},"geometry":{"type":"Polygon","coordinates":[[[70.0,30.0],[70.0,29.0],[69.0,29.0],[69.0,30.0],[70.0,30.0]]]}},{"type":"Feature","properties":{},"geometry":{"type":"Polygon","coordinates":[[[70.9824,20.7101],[70.8402,20.7019],[70.8016,20.7091],[70.7746,20.7274],[70.7402,20.7185],[70.6986,20.7464],[70.5415,20.8078],[70.4841,20.8439],[70.4631,20.8489],[70.3988,20.9035],[70.3367,20.9271],[70.2413,21.0],[71.0,21.0],[71.0,20.7216],[70.9824,20.7101]]]}},{"type":"Feature","properties":{},"geometry":{"type":"Polygon","coordinates":[[[70.2413,21.0],[70.0544,21.1532],[70.0,21.2192],[70.0,22.0],[71.0,22.0],[71.0,21.0],[70.2413,21.0]]]}},{"type":"Feature","properties":{},"geometry":{"type":"Polygon","coordinates":[[[70.0027,22.5432],[70.0208,22.5551],[70.0591,22.5584],[70.1447,22.5478],[70.1785,22.562],[70.3191,22.7783],[70.3225,22.8227],[70.3429,22.8432],[70.3753,22.9027],[70.4046,22.9195],[70.4534,22.9666],[70.4863,22.9637],[70.4976,22.97],[70.5154,23.0],[71.0,23.0],[71.0,22.0],[70.0,22.0],[70.0027,22.5432]]]}},{"type":"Feature","properties":{},"geometry":{"type":"Polygon","coordinates":[[[70.4019,22.9993],[70.3988,22.9455],[70.3467,22.9313],[70.3257,22.945],[70.3035,22.9381],[70.2918,22.953],[70.2693,22.9586],[70.2333,23.0],[70.4019,22.9993]]]}},{"type":"Feature","properties":{},"geometry":{"type":"Polygon","coordinates":[[[70.2319,22.9749],[70.222,22.9592],[70.2041,22.9522],[70.1631,22.949],[70.1475,22.9661],[70.1291,22.9693],[70.1306,22.994],[70.1095,22.9592],[70.1323,22.9411],[70.1354,22.93],[70.0618,22.9182],[70.0,22.8949],[70.0,23.0],[70.2331,23.0],[70.2319,22.9749]]]}},{"type":"Feature","properties":{},"geometry":{"type":"Polygon","coordinates":[[[70.5179,23.0039],[70.5272,23.0236],[70.5237,23.0704],[70.5029,23.1044],[70.4671,23.1297],[70.4509,23.1057],[70.4107,23.086],[70.3988,23.069],[70.411,23.0232],[70.4022,23.0],[70.0,23.0],[70.0,24.0],[71.0,24.0],[71.0,23.0],[70.5179,23.0039]]]}},{"type":"Feature","properties":{},"geometry":{"type":"Polygon","coordinates":[[[70.0,24.0],[70.0,25.0],[71.0,25.0],[71.0,24.0],[70.0,24.0]]]}},{"type":"Feature","properties":{},"geometry":{"type":"Polygon","coordinates":[[[70.0,25.0],[70.0,26.0],[71.0,26.0],[71.0,25.0],[70.0,25.0]]]}},{"type":"Feature","properties":{},"geometry":{"type":"Polygon","coordinates":[[[70.0,26.0],[70.0,27.0],[71.0,27.0],[71.0,26.0],[70.0,26.0]]]}},{"type":"Feature","properties":{},"geometry":{"type":"Polygon","coordinates":[[[70.0,27.0],[70.0,28.0],[71.0,28.0],[71.0,27.0],[70.0,27.0]]]}},{"type":"Feature","properties":{},"geometry":{"type":"Polygon","coordinates":[[[70.0,28.0],[70.0,29.0],[71.0,29.0],[71.0,28.0],[70.0,28.0]]]}},{"type":"Feature","properties":{},"geometry":{"type":"Polygon","coordinates":[[[71.0,30.0],[71.0,29.0],[70.0,29.0],[70.0,30.0],[71.0,30.0]]]}},{"type":"Feature","properties":{},"geometry":{"type":"Polygon","coordinates":[[[71.6494,21.0],[71.5835,20.9582],[71.5496,20.9512],[71.5693,20.9792],[71.5511,20.9736],[71.4934,20.9291],[71.4807,20.9004],[71.4622,20.8853],[71.3186,20.8493],[71.1406,20.7657],[71.0955,20.7637],[71.0623,20.739],[71.0077,20.7416],[71.0,20.7216],[71.0,21.0],[71.6494,21.0]]]}},{"type":"Feature","properties":{},"geometry":{"type":"Polygon","coordinates":[[[72.0,22.0],[72.0,21.141],[71.9263,21.13],[71.763,21.0323],[71.7176,21.0321],[71.6494,21.0],[71.0,21.0],[71.0,22.0],[72.0,22.0]]]}},{"type":"Feature","properties":{},"geometry":{"type":"Polygon","coordinates":[[[71.0,22.0],[71.0,23.0],[72.0,23.0],[72.0,22.0],[71.0,22.0]]]}},{"type":"Feature","properties":{},"geometry":{"type":"Polygon","coordinates":[[[71.0,23.0],[71.0,24.0],[72.0,24.0],[72.0,23.0],[71.0,23.0]]]}},{"type":"Feature","properties":{},"geometry":{"type":"Polygon","coordinates":[[[71.0,24.0],[71.0,25.0],[72.0,25.0],[72.0,24.0],[71.0,24.0]]]}},{"type":"Feature","properties":{},"geometry":{"type":"Polygon","coordinates":[[[71.0,25.0],[71.0,26.0],[72.0,26.0],[72.0,25.0],[71.0,25.0]]]}},{"type":"Feature","properties":{},"geometry":{"type":"Polygon","coordinates":[[[71.0,26.0],[71.0,27.0],[72.0,27.0],[72.0,26.0],[71.0,26.0]]]}},{"type":"Feature","properties":{},"geometry":{"type":"Polygon","coordinates":[[[71.0,27.0],[71.0,28.0],[72.0,28.0],[72.0,27.0],[71.0,27.0]]]}},{"type":"Feature","properties":{},"geometry":{"type":"Polygon","coordinates":[[[71.0,28.0],[71.0,29.0],[72.0,29.0],[72.0,28.0],[71.0,28.0]]]}},{"type":"Feature","properties":{},"geometry":{"type":"Polygon","coordinates":[[[72.0,30.0],[72.0,29.0],[71.0,29.0],[71.0,30.0],[72.0,30.0]]]}},{"type":"Feature","properties":{},"geometry":{"type":"Polygon","coordinates":[[[72.9094,5.0308],[72.9102,5.0327],[72.9129,5.0341],[72.9094,5.0308]]]}},{"type":"Feature","properties":{},"geometry":{"type":"Polygon","coordinates":[[[72.9277,5.0365],[72.9271,5.0339],[72.9243,5.033],[72.9277,5.0365]]]}},{"type":"Feature","properties":{},"geometry":{"type":"Polygon","coordinates":[[[72.9496,5.3493],[72.9531,5.3528],[72.9524,5.3501],[72.9496,5.3493]]]}},{"type":"Feature","properties":{},"geometry":{"type":"Polygon","coordinates":[[[72.937,5.4656],[72.9403,5.4621],[72.9382,5.4615],[72.937,5.4656]]]}},{"type":"Feature","properties":{},"geometry":{"type":"Polygon","coordinates":[[[73.0,5.707],[72.9988,5.712],[73.0,5.713],[73.0,5.707]]]}},{"type":"Feature","properties":{},"geometry":{"type":"Polygon","coordinates":[[[72.999,5.4611],[73.0,5.4625],[73.0,5.4587],[72.999,5.4611]]]}},{"type":"Feature","properties":{},"geometry":{"type":"Polygon","coordinates":[[[72.884,5.4941],[72.8792,5.4879],[72.8777,5.4921],[72.884,5.4941]]]}},{"type":"Feature","properties":{},"geometry":{"type":"Polygon","coordinates":[[[72.9828,5.7625],[72.9868,5.7707],[72.9858,5.7656],[72.9828,5.7625]]]}},{"type":"Feature","properties":{},"geometry":{"type":"Polygon","coordinates":[[[72.9751,5.8046],[72.971,5.8105],[72.9766,5.8136],[72.9751,5.8046]]]}},{"type":"Feature","properties":{},"geometry":{"type":"Polygon","coordinates":[[[72.9665,5.8502],[72.9619,5.8567],[72.9636,5.8643],[72.9637,5.864],[72.9665,5.8502]]]}},{"type":"Feature","properties":{},"geometry":{"type":"Polygon","coordinates":[[[72.9302,5.9569],[72.9264,5.9663],[72.9317,5.9691],[72.9302,5.9569]]]}},{"type":"Feature","properties":{},"geometry":{"type":"Polygon","coordinates":[[[72.9157,5.9813],[72.9098,5.9779],[72.9097,5.9821],[72.9157,5.9813]]]}},{"type":"Feature","properties":{},"geometry":{"type":"Polygon","coordinates":[[[72.9485,6.3444],[72.9539,6.3456],[72.9531,6.3435],[72.9485,6.3444]]]}},{"type":"Feature","properties":{},"geometry":{"type":"Polygon","coordinates":[[[72.8926,6.4521],[72.8963,6.4458],[72.8909,6.4482],[72.8926,6.4521]]]}},{"type":"Feature","properties":{},"geometry":{"type":"Polygon","coordinates":[[[72.6888,6.4097],[72.6859,6.4116],[72.6908,6.4116],[72.6888,6.4097]]]}},{"type":"Feature","properties":{},"geometry":{"type":"Polygon","coordinates":[[[72.9028,6.4402],[72.9066,6.4338],[72.9011,6.4363],[72.9028,6.4402]]]}},{"type":"Feature","properties":{},"geometry":{"type":"Polygon","coordinates":[[[72.9621,6.559],[72.9558,6.5553],[72.9583,6.5607],[72.9621,6.559]]]}},{"type":"Feature","properties":{},"geometry":{"type":"Polygon","coordinates":[[[72.924,6.5653],[72.9277,6.5589],[72.9225,6.5615],[72.924,6.5653]]]}},{"type":"Feature","properties":{},"geometry":{"type":"Polygon","coordinates":[[[72.9185,6.764],[72.9123,6.7602],[72.9149,6.7656],[72.9185,6.764]]]}},{"type":"Feature","properties":{},"geometry":{"type":"Polygon","coordinates":[[[72.9957,6.8415],[72.9894,6.8376],[72.992,6.843],[72.9957,6.8415]]]}},{"type":"Feature","properties":{},"geometry":{"type":"Polygon","coordinates":[[[72.9761,6.8529],[72.9741,6.8459],[72.9723,6.8514],[72.9761,6.8529]]]}},{"type":"Feature","properties":{},"geometry":{"type":"Polygon","coordinates":[[[72.9647,6.8607],[72.9583,6.857],[72.9611,6.8625],[72.9647,6.8607]]]}},{"type":"Feature","properties":{},"geometry":{"type":"Polygon","coordinates":[[[72.8905,6.9854],[72.8919,6.991],[72.8919,6.9877],[72.8905,6.9854]]]}},{"type":"Feature","properties":{},"geometry":{"type":"Polygon","coordinates":[[[72.9815,7.014],[72.9773,7.019],[72.9797,7.0277],[72.9797,7.0275],[72.9815,7.014]]]}},{"type":"Feature","properties":{},"geometry":{"type":"Polygon","coordinates":[[[72.9119,7.0832],[72.9066,7.091],[72.9129,7.0927],[72.9129,7.0926],[72.9119,7.0832]]]}},{"type":"Feature","properties":{},"geometry":{"type":"Polygon","coordinates":[[[72.8845,7.1057],[72.8825,7.1016],[72.8838,7.1072],[72.8845,7.1057]]]}},{"type":"Feature","properties":{},"geometry":{"type":"Polygon","coordinates":[[[72.6497,10.5668],[72.6275,10.5548],[72.6506,10.5726],[72.6497,10.5668]]]}},{"type":"Feature","properties":{},"geometry":{"type":"Polygon","coordinates":[[[72.179,10.8487],[72.2,10.8781],[72.2,10.8644],[72.1727,10.8092],[72.179,10.8487]]]}},{"type":"Feature","properties":{},"geometry":{"type":"Polygon","coordinates":[[[72.75,11.1191],[72.745,11.1095],[72.7395,11.1088],[72.75,11.1191]]]}},{"type":"Feature","properties":{},"geometry":{"type":"Polygon","coordinates":[[[72.7959,11.2617],[72.7891,11.248],[72.7754,11.1866],[72.7742,11.2229],[72.7891,11.2617],[72.7959,11.2617]]]}},{"type":"Feature","properties":{},"geometry":{"type":"Polygon","coordinates":[[[73.0,18.0533],[72.981,18.0806],[72.9881,18.096],[72.9761,18.1186],[72.9673,18.196],[72.9548,18.2175],[72.9269,18.2239],[72.94,18.2513],[72.9333,18.2666],[72.94,18.286],[72.9531,18.2813],[72.9727,18.2447],[73.0,18.2445],[73.0,18.0533]]]}},{"type":"Feature","properties":{},"geometry":{"type":"Polygon","coordinates":[[[73.0,18.2823],[72.968,18.3106],[72.9748,18.3276],[72.9588,18.3281],[72.9336,18.3549],[72.9126,18.3612],[72.9102,18.3992],[72.8914,18.4294],[72.8958,18.503],[72.9072,18.5236],[72.9247,18.5356],[72.9468,18.5324],[73.0,18.4597],[73.0,18.2823]]]}},{"type":"Feature","properties":{},"geometry":{"type":"Polygon","coordinates":[[[72.9888,18.4899],[72.9603,18.5547],[72.9102,18.559],[72.8822,18.6355],[72.8645,18.6489],[72.8553,18.6811],[72.8569,18.7862],[72.8792,18.8074],[72.9126,18.8],[72.9269,18.8266],[72.9748,18.7795],[72.9663,18.7614],[72.9696,18.747],[72.9951,18.731],[72.988,18.7539],[73.0,18.7964],[73.0,18.4828],[72.9888,18.4899]]]}},{"type":"Feature","properties":{},"geometry":{"type":"Polygon","coordinates":[[[72.988,18.8249],[72.9748,18.8483],[72.9778,18.875],[72.9461,18.8583],[72.9163,18.8705],[72.8968,18.8945],[72.9126,18.9235],[72.9281,18.9114],[72.9368,18.9474],[72.9772,18.9484],[72.9883,18.9644],[72.9536,18.9644],[72.9536,18.9713],[73.0,18.9846],[73.0,18.8201],[72.988,18.8249]]]}},{"type":"Feature","properties":{},"geometry":{"type":"Polygon","coordinates":[[[72.9883,18.9986],[72.9877,19.0],[72.9913,19.0],[72.9883,18.9986]]]}},{"type":"Feature","properties":{},"geometry":{"type":"Polygon","coordinates":[[[72.8914,18.9918],[72.8914,19.0],[72.8998,19.0],[72.8914,18.9918]]]}},{"type":"Feature","properties":{},"geometry":{"type":"Polygon","coordinates":[[[72.8607,19.0],[72.8213,18.9033],[72.8125,18.8974],[72.8027,18.9098],[72.8027,18.9576],[72.7754,18.9365],[72.7704,18.9482],[72.8025,19.0],[72.8607,19.0]]]}},{"type":"Feature","properties":{},"geometry":{"type":"Polygon","coordinates":[[[72.9913,19.0],[72.9836,19.0104],[72.9878,19.0369],[72.981,19.0464],[72.9919,19.0672],[72.9673,19.091],[72.9748,19.1631],[72.9673,19.1631],[72.9356,19.1151],[72.9269,19.0668],[72.9434,19.0551],[72.9343,19.0341],[72.8998,19.0],[72.8914,19.0],[72.8853,19.0259],[72.8607,19.0],[72.8025,19.0],[72.8027,19.0402],[72.8171,19.0327],[72.8242,19.0535],[72.8213,19.0632],[72.8096,19.0668],[72.8231,19.1085],[72.8096,19.1463],[72.8231,19.1693],[72.8112,19.1755],[72.7922,19.1505],[72.7816,19.1597],[72.8025,19.2116],[72.8301,19.2524],[72.8151,19.2536],[72.7754,19.2047],[72.7722,19.2651],[72.7756,19.299],[72.7854,19.3139],[72.867,19.3168],[72.8855,19.296],[72.9006,19.2908],[72.9303,19.2866],[72.9727,19.2937],[72.9883,19.2791],[73.0,19.2502],[73.0,19.004],[72.9913,19.0]]]}},{"type":"Feature","properties":{},"geometry":{"type":"Polygon","coordinates":[[[73.0,19.2884],[72.971,19.307],[72.8989,19.307],[72.8369,19.348],[72.8185,19.3303],[72.8021,19.3319],[72.7598,19.389],[72.7468,19.468],[72.7544,19.4818],[72.8792,19.5324],[72.8567,19.5413],[72.7959,19.5268],[72.7813,19.5366],[72.7707,19.5661],[72.742,19.5808],[72.7345,19.5808],[72.7407,19.5607],[72.7345,19.5466],[72.7556,19.5194],[72.7492,19.5126],[72.7415,19.516],[72.7225,19.5363],[72.7108,19.5876],[72.718,19.6067],[72.6867,19.7248],[72.7078,19.6975],[72.7264,19.7058],[72.714,19.7458],[72.7313,19.7546],[72.7328,19.7797],[72.7283,19.7936],[72.6901,19.749],[72.6779,19.7466],[72.6799,19.8005],[72.6492,19.852],[72.6642,19.8816],[72.6652,19.9529],[72.6843,19.964],[72.7041,20.0],[73.0,20.0],[73.0,19.2884]]]}},{"type":"Feature","properties":{},"geometry":{"type":"Polygon","coordinates":[[[72.7041,20.0],[72.7103,20.0829],[72.7283,20.1295],[72.7376,20.1843],[72.7556,20.2152],[72.742,20.225],[72.7482,20.2803],[72.7775,20.3301],[72.7816,20.3523],[72.8171,20.3759],[72.8294,20.4379],[72.8865,20.5316],[72.8914,20.5751],[72.8853,20.6192],[72.9026,20.6419],[72.9094,20.6987],[72.8989,20.7322],[72.9468,20.7595],[72.945,20.77],[72.9194,20.7874],[72.925,20.8106],[72.9194,20.8215],[72.9002,20.7991],[72.8858,20.8071],[72.8801,20.8299],[72.9004,20.8681],[72.8812,20.8657],[72.8369,20.8358],[72.8543,20.8872],[72.8649,20.8973],[72.8367,20.9299],[72.8865,20.9621],[72.8884,20.9826],[72.8327,20.9724],[72.8145,21.0],[73.0,21.0],[73.0,20.0],[72.7041,20.0]]]}},{"type":"Feature","properties":{},"geometry":{"type":"Polygon","coordinates":[[[73.0,21.0],[72.782,21.0102],[72.7669,21.0386],[72.8231,21.0338],[72.845,21.0383],[72.8499,21.048],[72.8096,21.13],[72.7556,21.1096],[72.742,21.1232],[72.7345,21.0925],[72.7004,21.0748],[72.7058,21.1063],[72.7287,21.1481],[72.714,21.1641],[72.6764,21.1536],[72.6712,21.0998],[72.6379,21.0854],[72.615,21.1059],[72.6155,21.1198],[72.6304,21.136],[72.7118,21.194],[72.7345,21.1989],[72.6877,21.2204],[72.6732,21.2391],[72.647,21.2536],[72.6458,21.2734],[72.6184,21.2529],[72.6021,21.2777],[72.5868,21.3412],[72.5905,21.3485],[72.6458,21.3628],[72.6387,21.3712],[72.5941,21.3628],[72.5789,21.367],[72.5646,21.3858],[72.6351,21.4075],[72.7283,21.4658],[72.7471,21.4529],[72.7485,21.4796],[72.7383,21.4829],[72.665,21.4572],[72.6125,21.4219],[72.5837,21.4174],[72.6196,21.4874],[72.6901,21.5407],[72.7732,21.5805],[72.8104,21.6351],[72.8231,21.6439],[72.8897,21.6405],[73.0,21.6908],[73.0,21.0]]]}},{"type":"Feature","properties":{},"geometry":{"type":"Polygon","coordinates":[[[73.0,21.7102],[72.9269,21.685],[72.8582,21.695],[72.8192,21.675],[72.7332,21.6875],[72.6764,21.6781],[72.6161,21.6855],[72.5503,21.6667],[72.5347,21.6729],[72.5285,21.6951],[72.5563,21.7743],[72.5669,21.8494],[72.5855,21.8589],[72.6184,21.9251],[72.6521,21.9411],[72.6901,21.9388],[72.7023,21.9476],[72.714,21.983],[72.7345,21.9866],[72.7345,21.994],[72.7078,21.994],[72.6935,21.9723],[72.6231,21.9666],[72.5818,21.9282],[72.5427,21.9108],[72.5071,21.9623],[72.5017,21.976],[72.5066,22.0],[73.0,22.0],[73.0,21.7102]]]}},{"type":"Feature","properties":{},"geometry":{"type":"Polygon","coordinates":[[[72.2153,22.0],[72.2063,21.994],[72.2034,22.0],[72.2153,22.0]]]}},{"type":"Feature","properties":{},"geometry":{"type":"Polygon","coordinates":[[[72.1937,22.0],[72.1634,21.9732],[72.1417,22.0],[72.1937,22.0]]]}},{"type":"Feature","properties":{},"geometry":{"type":"Polygon","coordinates":[[[72.1087,22.0],[72.1281,21.9835],[72.1248,21.9723],[72.0765,21.9797],[72.1045,21.9592],[72.1021,21.9451],[72.0552,21.9535],[72.0287,21.9388],[72.1045,21.9177],[72.1565,21.9258],[72.1454,21.9108],[72.1592,21.9046],[72.1524,21.8979],[72.1698,21.8904],[72.16,21.8659],[72.1694,21.8414],[72.1309,21.8463],[72.0985,21.8805],[72.058,21.8987],[72.0493,21.8804],[72.0864,21.8656],[72.1045,21.8358],[72.0628,21.8344],[72.0,21.856],[72.0,22.0],[72.1087,22.0]]]}},{"type":"Feature","properties":{},"geometry":{"type":"Polygon","coordinates":[[[72.0015,21.7879],[72.0218,21.801],[72.0218,21.7743],[72.0739,21.7887],[72.1032,21.7752],[72.166,21.7939],[72.177,21.7667],[72.2024,21.7481],[72.2238,21.7006],[72.2404,21.6917],[72.2717,21.6909],[72.2957,21.6539],[72.2988,21.6263],[72.2752,21.5955],[72.2422,21.4808],[72.2199,21.4447],[72.1668,21.3921],[72.1516,21.3602],[72.1045,21.315],[72.1115,21.2961],[72.097,21.2877],[72.1025,21.2744],[72.0908,21.2529],[72.1047,21.2051],[72.055,21.1684],[72.0,21.141],[72.0015,21.7879]]]}},{"type":"Feature","properties":{},"geometry":{"type":"Polygon","coordinates":[[[72.5178,22.0321],[72.5195,22.0884],[72.5422,22.1567],[72.5905,22.205],[72.6345,22.2104],[72.6819,22.1816],[72.7078,22.1858],[72.7482,22.164],[72.8123,22.2341],[72.8474,22.2404],[72.8972,22.213],[72.916,22.2231],[72.9227,22.2546],[72.9175,22.2714],[72.9058,22.2814],[72.8997,22.2692],[72.8695,22.2624],[72.8386,22.2766],[72.8182,22.2734],[72.7566,22.2437],[72.6594,22.2739],[72.625,22.2714],[72.6066,22.2838],[72.5737,22.2882],[72.5531,22.2825],[72.5017,22.2404],[72.4662,22.2326],[72.4548,22.2453],[72.467,22.2558],[72.4639,22.264],[72.4487,22.2668],[72.4137,22.2463],[72.3919,22.2535],[72.3804,22.3124],[72.405,22.333],[72.4081,22.3535],[72.3972,22.3668],[72.361,22.3435],[72.3283,22.2607],[72.2752,22.2603],[72.2632,22.2764],[72.2647,22.2952],[72.2404,22.3019],[72.2085,22.3004],[72.2009,22.2914],[72.2063,22.2739],[72.1488,22.2779],[72.166,22.2603],[72.1907,22.2513],[72.2404,22.2882],[72.2461,22.2756],[72.2341,22.2436],[72.2391,22.2389],[72.2683,22.2268],[72.3065,22.2296],[72.3172,22.1849],[72.3076,22.079],[72.2752,22.0275],[72.2494,22.0083],[72.221,22.011],[72.2153,22.0],[72.1999,22.007],[72.1937,22.0],[72.1417,22.0],[72.1138,22.0106],[72.097,22.007],[72.1087,22.0],[72.0,22.0],[72.0,23.0],[73.0,23.0],[73.0,22.0],[72.5066,22.0],[72.5178,22.0321]]]}},{"type":"Feature","properties":{},"geometry":{"type":"Polygon","coordinates":[[[72.0,23.0],[72.0,24.0],[73.0,24.0],[73.0,23.0],[72.0,23.0]]]}},{"type":"Feature","properties":{},"geometry":{"type":"Polygon","coordinates":[[[72.0,24.0],[72.0,25.0],[73.0,25.0],[73.0,24.0],[72.0,24.0]]]}},{"type":"Feature","properties":{},"geometry":{"type":"Polygon","coordinates":[[[72.0,25.0],[72.0,26.0],[73.0,26.0],[73.0,25.0],[72.0,25.0]]]}},{"type":"Feature","properties":{},"geometry":{"type":"Polygon","coordinates":[[[72.0,26.0],[72.0,27.0],[73.0,27.0],[73.0,26.0],[72.0,26.0]]]}},{"type":"Feature","properties":{},"geometry":{"type":"Polygon","coordinates":[[[72.0,27.0],[72.0,28.0],[73.0,28.0],[73.0,27.0],[72.0,27.0]]]}},{"type":"Feature","properties":{},"geometry":{"type":"Polygon","coordinates":[[[72.0,28.0],[72.0,29.0],[73.0,29.0],[73.0,28.0],[72.0,28.0]]]}},{"type":"Feature","properties":{},"geometry":{"type":"Polygon","coordinates":[[[73.0,30.0],[73.0,29.0],[72.0,29.0],[72.0,30.0],[73.0,30.0]]]}},{"type":"Feature","properties":{},"geometry":{"type":"Polygon","coordinates":[[[73.0491,5.1333],[73.0514,5.1267],[73.0453,5.1289],[73.0491,5.1333]]]}},{"type":"Feature","properties":{},"geometry":{"type":"Polygon","coordinates":[[[73.091,5.1585],[73.0877,5.1579],[73.0913,5.1614],[73.091,5.1585]]]}},{"type":"Feature","properties":{},"geometry":{"type":"Polygon","coordinates":[[[73.1284,5.2412],[73.1318,5.2446],[73.1318,5.2425],[73.1284,5.2412]]]}},{"type":"Feature","properties":{},"geometry":{"type":"Polygon","coordinates":[[[73.4972,5.245],[73.4938,5.246],[73.4998,5.2469],[73.4972,5.245]]]}},{"type":"Feature","properties":{},"geometry":{"type":"Polygon","coordinates":[[[73.5829,5.2756],[73.57,5.2768],[73.5936,5.2827],[73.5829,5.2756]]]}},{"type":"Feature","properties":{},"geometry":{"type":"Polygon","coordinates":[[[73.4644,5.3069],[73.4671,5.3083],[73.4701,5.3077],[73.4644,5.3069]]]}},{"type":"Feature","properties":{},"geometry":{"type":"Polygon","coordinates":[[[73.6272,5.3311],[73.6233,5.3319],[73.6296,5.3328],[73.6272,5.3311]]]}},{"type":"Feature","properties":{},"geometry":{"type":"Polygon","coordinates":[[[73.3962,5.3571],[73.4006,5.3577],[73.4012,5.3561],[73.3962,5.3571]]]}},{"type":"Feature","properties":{},"geometry":{"type":"Polygon","coordinates":[[[73.3233,5.3682],[73.3193,5.3629],[73.3177,5.3658],[73.3233,5.3682]]]}},{"type":"Feature","properties":{},"geometry":{"type":"Polygon","coordinates":[[[73.3449,5.4268],[73.3475,5.4288],[73.3508,5.4277],[73.3449,5.4268]]]}},{"type":"Feature","properties":{},"geometry":{"type":"Polygon","coordinates":[[[73.5313,5.4504],[73.5374,5.4514],[73.5349,5.4499],[73.5313,5.4504]]]}},{"type":"Feature","properties":{},"geometry":{"type":"Polygon","coordinates":[[[73.0159,5.4929],[73.011,5.4868],[73.0098,5.4909],[73.0159,5.4929]]]}},{"type":"Feature","properties":{},"geometry":{"type":"Polygon","coordinates":[[[73.4593,5.5417],[73.4563,5.5427],[73.4624,5.5436],[73.4593,5.5417]]]}},{"type":"Feature","properties":{},"geometry":{"type":"Polygon","coordinates":[[[73.0056,5.7133],[73.0,5.707],[73.0002,5.7132],[73.0056,5.7133]]]}},{"type":"Feature","properties":{},"geometry":{"type":"Polygon","coordinates":[[[73.6296,5.4185],[73.6359,5.3945],[73.6325,5.3861],[73.6296,5.4185]]]}},{"type":"Feature","properties":{},"geometry":{"type":"Polygon","coordinates":[[[73.0,5.4625],[73.0026,5.4576],[73.001,5.4562],[73.0,5.4625]]]}},{"type":"Feature","properties":{},"geometry":{"type":"Polygon","coordinates":[[[73.0129,5.6157],[73.0161,5.6123],[73.014,5.6116],[73.0129,5.6157]]]}},{"type":"Feature","properties":{},"geometry":{"type":"Polygon","coordinates":[[[73.0132,5.675],[73.0086,5.675],[73.0147,5.677],[73.0132,5.675]]]}},{"type":"Feature","properties":{},"geometry":{"type":"Polygon","coordinates":[[[73.3807,5.7146],[73.3826,5.7221],[73.3928,5.7377],[73.3924,5.7368],[73.3807,5.7146]]]}},{"type":"Feature","properties":{},"geometry":{"type":"Polygon","coordinates":[[[73.3768,5.7873],[73.3845,5.7869],[73.3807,5.7841],[73.3768,5.7873]]]}},{"type":"Feature","properties":{},"geometry":{"type":"Polygon","coordinates":[[[73.4338,5.8309],[73.4431,5.8413],[73.4498,5.8407],[73.4338,5.8309]]]}},{"type":"Feature","properties":{},"geometry":{"type":"Polygon","coordinates":[[[73.4232,5.9069],[73.4285,5.9044],[73.4263,5.9033],[73.4232,5.9069]]]}},{"type":"Feature","properties":{},"geometry":{"type":"Polygon","coordinates":[[[73.3867,5.962],[73.3898,5.9703],[73.3953,5.9578],[73.3867,5.962]]]}},{"type":"Feature","properties":{},"geometry":{"type":"Polygon","coordinates":[[[73.219,6.1293],[73.2152,6.1286],[73.2205,6.1321],[73.219,6.1293]]]}},{"type":"Feature","properties":{},"geometry":{"type":"Polygon","coordinates":[[[73.2703,6.1569],[73.2673,6.1509],[73.2651,6.1506],[73.2703,6.1569]]]}},{"type":"Feature","properties":{},"geometry":{"type":"Polygon","coordinates":[[[73.2681,6.1787],[73.266,6.185],[73.2708,6.1894],[73.2681,6.1787]]]}},{"type":"Feature","properties":{},"geometry":{"type":"Polygon","coordinates":[[[73.2417,6.2397],[73.2402,6.2289],[73.2363,6.2321],[73.2417,6.2397]]]}},{"type":"Feature","properties":{},"geometry":{"type":"Polygon","coordinates":[[[73.1261,6.284],[73.1229,6.2834],[73.1284,6.2869],[73.1261,6.284]]]}},{"type":"Feature","properties":{},"geometry":{"type":"Polygon","coordinates":[[[73.1942,6.3216],[73.2019,6.3222],[73.201,6.3183],[73.1942,6.3216]]]}},{"type":"Feature","properties":{},"geometry":{"type":"Polygon","coordinates":[[[73.1849,6.3491],[73.181,6.3498],[73.1873,6.3508],[73.1849,6.3491]]]}},{"type":"Feature","properties":{},"geometry":{"type":"Polygon","coordinates":[[[73.0205,6.369],[73.0242,6.3627],[73.0187,6.3652],[73.0205,6.369]]]}},{"type":"Feature","properties":{},"geometry":{"type":"Polygon","coordinates":[[[73.0462,6.4363],[73.0431,6.4337],[73.0488,6.4413],[73.0462,6.4363]]]}},{"type":"Feature","properties":{},"geometry":{"type":"Polygon","coordinates":[[[73.0256,6.5793],[73.0304,6.5761],[73.0282,6.5752],[73.0256,6.5793]]]}},{"type":"Feature","properties":{},"geometry":{"type":"Polygon","coordinates":[[[73.0448,6.6219],[73.0384,6.6181],[73.041,6.6236],[73.0448,6.6219]]]}},{"type":"Feature","properties":{},"geometry":{"type":"Polygon","coordinates":[[[73.0618,6.661],[73.0641,6.6684],[73.0695,6.668],[73.0618,6.661]]]}},{"type":"Feature","properties":{},"geometry":{"type":"Polygon","coordinates":[[[73.1035,6.7059],[73.0959,6.6984],[73.106,6.7099],[73.1035,6.7059]]]}},{"type":"Feature","properties":{},"geometry":{"type":"Polygon","coordinates":[[[73.032,6.7566],[73.0369,6.7535],[73.0347,6.7526],[73.032,6.7566]]]}},{"type":"Feature","properties":{},"geometry":{"type":"Polygon","coordinates":[[[73.1655,6.7856],[73.1528,6.7492],[73.1317,6.725],[73.1595,6.7865],[73.1655,6.7856]]]}},{"type":"Feature","properties":{},"geometry":{"type":"Polygon","coordinates":[[[73.1973,6.8281],[73.1808,6.8234],[73.1817,6.8305],[73.1973,6.8281]]]}},{"type":"Feature","properties":{},"geometry":{"type":"Polygon","coordinates":[[[73.1444,6.8434],[73.138,6.8397],[73.1406,6.845],[73.1444,6.8434]]]}},{"type":"Feature","properties":{},"geometry":{"type":"Polygon","coordinates":[[[73.0929,6.8531],[73.094,6.8476],[73.0918,6.8483],[73.0929,6.8531]]]}},{"type":"Feature","properties":{},"geometry":{"type":"Polygon","coordinates":[[[73.1062,6.8967],[73.1043,6.8896],[73.1023,6.8952],[73.1062,6.8967]]]}},{"type":"Feature","properties":{},"geometry":{"type":"Polygon","coordinates":[[[73.214,6.9186],[73.2039,6.885],[73.2019,6.9022],[73.214,6.9186]]]}},{"type":"Feature","properties":{},"geometry":{"type":"Polygon","coordinates":[[[73.1947,6.9512],[73.1919,6.9676],[73.1985,6.9713],[73.1947,6.9512]]]}},{"type":"Feature","properties":{},"geometry":{"type":"Polygon","coordinates":[[[73.083,8.3144],[73.0567,8.26],[73.0327,8.2495],[73.0241,8.2554],[73.0225,8.2744],[73.0293,8.2744],[73.0293,8.26],[73.0483,8.2676],[73.073,8.2954],[73.0772,8.3153],[73.083,8.3144]]]}},{"type":"Feature","properties":{},"geometry":{"type":"Polygon","coordinates":[[[73.6439,10.0945],[73.6326,10.0573],[73.6333,10.0779],[73.6439,10.0945]]]}},{"type":"Feature","properties":{},"geometry":{"type":"Polygon","coordinates":[[[73.6556,10.1448],[73.6579,10.1391],[73.6546,10.1415],[73.6556,10.1448]]]}},{"type":"Feature","properties":{},"geometry":{"type":"Polygon","coordinates":[[[73.6812,10.8281],[73.6729,10.8247],[73.6714,10.8297],[73.6812,10.8281]]]}},{"type":"Feature","properties":{},"geometry":{"type":"Polygon","coordinates":[[[73.0132,11.5022],[73.0056,11.4796],[73.0044,11.4965],[73.0132,11.5022]]]}},{"type":"Feature","properties":{},"geometry":{"type":"Polygon","coordinates":[[[73.9958,15.0107],[73.9644,15.0646],[73.9131,15.0789],[73.929,15.1206],[73.9622,15.152],[73.9541,15.1683],[73.9473,15.1608],[73.8913,15.3432],[73.8826,15.3553],[73.8274,15.3652],[73.7829,15.4079],[73.8601,15.4079],[73.8849,15.398],[73.8996,15.4079],[73.9334,15.3954],[73.9541,15.3663],[73.9678,15.3738],[73.9276,15.4174],[73.8859,15.4352],[73.8586,15.4352],[73.8416,15.4489],[73.7964,15.4489],[73.8005,15.475],[73.8176,15.4966],[73.8722,15.5109],[73.8595,15.5211],[73.866,15.5376],[73.7864,15.4922],[73.7663,15.4973],[73.7512,15.5131],[73.7561,15.5376],[73.7368,15.5717],[73.7371,15.5985],[73.7604,15.632],[73.8381,15.6543],[73.8381,15.6611],[73.7839,15.6591],[73.7283,15.6196],[73.7183,15.6271],[73.6859,15.7043],[73.7009,15.7232],[73.6463,15.7369],[73.6463,15.7921],[73.6047,15.8808],[73.5101,15.9676],[73.4898,16.0],[74.0,16.0],[73.9958,15.0107]]]}},{"type":"Feature","properties":{},"geometry":{"type":"Polygon","coordinates":[[[73.4873,16.0142],[73.516,16.0174],[73.516,16.0248],[73.4839,16.0282],[73.447,16.0689],[73.4607,16.0863],[73.4634,16.1596],[73.488,16.1894],[73.465,16.1823],[73.4528,16.1666],[73.447,16.1136],[73.4352,16.2178],[73.4197,16.2167],[73.4136,16.2239],[73.3787,16.3327],[73.3787,16.3569],[73.3582,16.3675],[73.3644,16.3893],[73.3849,16.4016],[73.3521,16.4181],[73.3413,16.4321],[73.3192,16.5098],[73.303,16.533],[73.3073,16.5632],[73.344,16.5236],[73.3787,16.5183],[73.3508,16.5382],[73.3713,16.5593],[73.3364,16.5656],[73.3228,16.5762],[73.3146,16.5994],[73.3582,16.6207],[73.363,16.5968],[73.3713,16.6102],[73.3665,16.6281],[73.3543,16.6347],[73.3235,16.6207],[73.3122,16.6447],[73.3216,16.6925],[73.3003,16.7132],[73.2896,16.7402],[73.3037,16.8131],[73.2969,16.8056],[73.2866,16.8209],[73.2694,16.8756],[73.2796,16.8876],[73.2705,16.945],[73.2894,16.9838],[73.26,17.0],[74.0,17.0],[74.0,16.0],[73.4898,16.0],[73.4873,16.0142]]]}},{"type":"Feature","properties":{},"geometry":{"type":"Polygon","coordinates":[[[73.2546,17.0067],[73.2627,17.0185],[73.2515,17.0424],[73.259,17.0441],[73.2694,17.0316],[73.2774,17.0547],[73.2757,17.0786],[73.2551,17.121],[73.2606,17.1505],[73.2362,17.1992],[73.236,17.2206],[73.2149,17.2687],[73.187,17.306],[73.2312,17.2793],[73.249,17.2849],[73.196,17.3694],[73.1706,17.3897],[73.1653,17.413],[73.1854,17.4419],[73.1733,17.4574],[73.1807,17.4777],[73.1317,17.5394],[73.126,17.5565],[73.1279,17.5647],[73.1634,17.5695],[73.2007,17.5865],[73.1541,17.5956],[73.1282,17.6116],[73.1203,17.642],[73.1261,17.6554],[73.1055,17.6889],[73.1233,17.7358],[73.1013,17.7963],[73.0794,17.8246],[73.0652,17.8784],[73.0186,17.9517],[73.0171,17.9721],[73.0354,17.9918],[73.0089,18.0],[74.0,18.0],[74.0,17.0],[73.26,17.0],[73.2546,17.0067]]]}},{"type":"Feature","properties":{},"geometry":{"type":"Polygon","coordinates":[[[73.0086,18.0002],[73.0088,18.0259],[73.0422,18.049],[73.0435,18.067],[73.0227,18.0577],[73.0088,18.039],[73.0,18.0533],[73.0,18.2445],[73.051,18.2275],[73.0635,18.2104],[73.0476,18.2012],[73.0476,18.1888],[73.0575,18.1856],[73.0715,18.2041],[73.074,18.2242],[73.0653,18.2576],[73.0715,18.273],[73.057,18.281],[73.0,18.2823],[73.0,18.4597],[73.0088,18.4505],[73.015,18.47],[73.0,18.4828],[73.0,18.7964],[73.0163,18.8136],[73.0,18.8201],[73.0,18.9846],[73.0491,19.0],[74.0,19.0],[74.0,18.0],[73.0086,18.0002]]]}},{"type":"Feature","properties":{},"geometry":{"type":"Polygon","coordinates":[[[73.0568,19.0153],[73.0398,19.0175],[73.0,19.004],[73.0,19.2502],[73.0266,19.2055],[73.0497,19.2177],[73.03,19.2277],[73.0291,19.2593],[73.0,19.2884],[73.0,20.0],[74.0,20.0],[74.0,19.0],[73.0491,19.0],[73.0568,19.0153]]]}},{"type":"Feature","properties":{},"geometry":{"type":"Polygon","coordinates":[[[73.0,20.0],[73.0,21.0],[74.0,21.0],[74.0,20.0],[73.0,20.0]]]}},{"type":"Feature","properties":{},"geometry":{"type":"Polygon","coordinates":[[[73.0,21.6908],[73.085,21.7297],[73.117,21.7372],[73.132,21.7578],[73.1261,21.7668],[73.1188,21.7647],[73.0,21.7102],[73.0,22.0],[74.0,22.0],[74.0,21.0],[73.0,21.0],[73.0,21.6908]]]}},{"type":"Feature","properties":{},"geometry":{"type":"Polygon","coordinates":[[[73.0,22.0],[73.0,23.0],[74.0,23.0],[74.0,22.0],[73.0,22.0]]]}},{"type":"Feature","properties":{},"geometry":{"type":"Polygon","coordinates":[[[73.0,23.0],[73.0,24.0],[74.0,24.0],[74.0,23.0],[73.0,23.0]]]}},{"type":"Feature","properties":{},"geometry":{"type":"Polygon","coordinates":[[[73.0,24.0],[73.0,25.0],[74.0,25.0],[74.0,24.0],[73.0,24.0]]]}},{"type":"Feature","properties":{},"geometry":{"type":"Polygon","coordinates":[[[73.0,25.0],[73.0,26.0],[74.0,26.0],[74.0,25.0],[73.0,25.0]]]}},{"type":"Feature","properties":{},"geometry":{"type":"Polygon","coordinates":[[[73.0,26.0],[73.0,27.0],[74.0,27.0],[74.0,26.0],[73.0,26.0]]]}},{"type":"Feature","properties":{},"geometry":{"type":"Polygon","coordinates":[[[73.0,27.0],[73.0,28.0],[74.0,28.0],[74.0,27.0],[73.0,27.0]]]}},{"type":"Feature","properties":{},"geometry":{"type":"Polygon","coordinates":[[[73.0,28.0],[73.0,29.0],[74.0,29.0],[74.0,28.0],[73.0,28.0]]]}},{"type":"Feature","properties":{},"geometry":{"type":"Polygon","coordinates":[[[74.0,30.0],[74.0,29.0],[73.0,29.0],[73.0,30.0],[74.0,30.0]]]}},{"type":"Feature","properties":{},"geometry":{"type":"Polygon","coordinates":[[[74.9994,12.4549],[74.9553,12.5373],[74.8796,12.7255],[74.8557,12.7594],[74.8523,12.7973],[74.8276,12.8247],[74.825,12.8382],[74.8591,12.8246],[74.8811,12.848],[74.9175,12.8581],[74.9409,12.8786],[74.8506,12.8572],[74.8176,12.8618],[74.7833,13.0],[75.0,13.0],[74.9994,12.4549]]]}},{"type":"Feature","properties":{},"geometry":{"type":"Polygon","coordinates":[[[74.7703,13.0524],[74.7834,13.0847],[74.763,13.1188],[74.7151,13.331],[74.6895,13.3816],[74.6946,13.3931],[74.6809,13.4682],[74.6937,13.4153],[74.7083,13.413],[74.7019,13.4204],[74.7014,13.4614],[74.6771,13.5268],[74.6735,13.6191],[74.6667,13.6328],[74.6771,13.6303],[74.6809,13.647],[74.71,13.6406],[74.7356,13.6538],[74.7129,13.6562],[74.6883,13.6859],[74.7014,13.6948],[74.6878,13.7118],[74.676,13.7011],[74.6605,13.6601],[74.6231,13.7742],[74.6146,13.8355],[74.584,13.9039],[74.5128,14.0],[75.0,14.0],[75.0,13.0],[74.7833,13.0],[74.7703,13.0524]]]}},{"type":"Feature","properties":{},"geometry":{"type":"Polygon","coordinates":[[[74.5128,14.0],[74.4954,14.0306],[74.4954,14.0715],[74.4749,14.1057],[74.4675,14.1814],[74.429,14.2404],[74.4334,14.2634],[74.471,14.2487],[74.509,14.2503],[74.4277,14.2838],[74.4154,14.3011],[74.4126,14.3448],[74.397,14.3727],[74.3942,14.4108],[74.3539,14.5051],[74.3519,14.5302],[74.3888,14.4627],[74.4072,14.462],[74.4011,14.4797],[74.4277,14.4763],[74.3724,14.5302],[74.3792,14.5446],[74.3683,14.5497],[74.3587,14.5446],[74.3587,14.5712],[74.3429,14.5637],[74.339,14.524],[74.3249,14.5172],[74.3005,14.5274],[74.2952,14.5873],[74.3074,14.6019],[74.339,14.6059],[74.339,14.6128],[74.3239,14.6186],[74.2871,14.6059],[74.2759,14.6102],[74.2669,14.6313],[74.2762,14.6401],[74.2529,14.7189],[74.2205,14.7381],[74.1943,14.7158],[74.1738,14.7499],[74.1533,14.7499],[74.1458,14.7636],[74.0964,14.7934],[74.0913,14.8114],[74.1091,14.8026],[74.1187,14.8319],[74.1405,14.8388],[74.1595,14.8257],[74.179,14.8563],[74.208,14.8666],[74.2331,14.8646],[74.2352,14.8765],[74.2112,14.8874],[74.208,14.9008],[74.1409,14.8527],[74.1118,14.8462],[74.0912,14.8876],[74.036,14.9213],[74.0303,14.9352],[74.036,14.9796],[74.0232,15.0],[75.0,15.0],[75.0,14.0],[74.5128,14.0]]]}},{"type":"Feature","properties":{},"geometry":{"type":"Polygon","coordinates":[[[74.0202,15.0018],[74.0,15.0085],[74.0,16.0],[75.0,16.0],[75.0,15.0],[74.0202,15.0018]]]}},{"type":"Feature","properties":{},"geometry":{"type":"Polygon","coordinates":[[[74.0,16.0],[74.0,17.0],[75.0,17.0],[75.0,16.0],[74.0,16.0]]]}},{"type":"Feature","properties":{},"geometry":{"type":"Polygon","coordinates":[[[74.0,17.0],[74.0,18.0],[75.0,18.0],[75.0,17.0],[74.0,17.0]]]}},{"type":"Feature","properties":{},"geometry":{"type":"Polygon","coordinates":[[[74.0,18.0],[74.0,19.0],[75.0,19.0],[75.0,18.0],[74.0,18.0]]]}},{"type":"Feature","properties":{},"geometry":{"type":"Polygon","coordinates":[[[74.0,19.0],[74.0,20.0],[75.0,20.0],[75.0,19.0],[74.0,19.0]]]}},{"type":"Feature","properties":{},"geometry":{"type":"Polygon","coordinates":[[[74.0,20.0],[74.0,21.0],[75.0,21.0],[75.0,20.0],[74.0,20.0]]]}},{"type":"Feature","properties":{},"geometry":{"type":"Polygon","coordinates":[[[74.0,21.0],[74.0,22.0],[75.0,22.0],[75.0,21.0],[74.0,21.0]]]}},{"type":"Feature","properties":{},"geometry":{"type":"Polygon","coordinates":[[[74.0,22.0],[74.0,23.0],[75.0,23.0],[75.0,22.0],[74.0,22.0]]]}},{"type":"Feature","properties":{},"geometry":{"type":"Polygon","coordinates":[[[74.0,23.0],[74.0,24.0],[75.0,24.0],[75.0,23.0],[74.0,23.0]]]}},{"type":"Feature","properties":{},"geometry":{"type":"Polygon","coordinates":[[[74.0,24.0],[74.0,25.0],[75.0,25.0],[75.0,24.0],[74.0,24.0]]]}},{"type":"Feature","properties":{},"geometry":{"type":"Polygon","coordinates":[[[74.0,25.0],[74.0,26.0],[75.0,26.0],[75.0,25.0],[74.0,25.0]]]}},{"type":"Feature","properties":{},"geometry":{"type":"Polygon","coordinates":[[[74.0,26.0],[74.0,27.0],[75.0,27.0],[75.0,26.0],[74.0,26.0]]]}},{"type":"Feature","properties":{},"geometry":{"type":"Polygon","coordinates":[[[74.0,27.0],[74.0,28.0],[75.0,28.0],[75.0,27.0],[74.0,27.0]]]}},{"type":"Feature","properties":{},"geometry":{"type":"Polygon","coordinates":[[[74.0,28.0],[74.0,29.0],[75.0,29.0],[75.0,28.0],[74.0,28.0]]]}},{"type":"Feature","properties":{},"geometry":{"type":"Polygon","coordinates":[[[75.0,30.0],[75.0,29.0],[74.0,29.0],[74.0,30.0],[75.0,30.0]]]}},{"type":"Feature","properties":{},"geometry":{"type":"Polygon","coordinates":[[[75.9997,10.6055],[75.922,10.7656],[75.9241,10.7807],[75.9416,10.7962],[75.9111,10.8092],[75.8945,10.8498],[75.8608,11.0],[76.0,11.0],[75.9997,10.6055]]]}},{"type":"Feature","properties":{},"geometry":{"type":"Polygon","coordinates":[[[75.8328,11.0978],[75.7308,11.3317],[75.7293,11.3437],[75.7424,11.3587],[75.7355,11.3715],[75.7222,11.3675],[75.6648,11.4626],[75.6165,11.4736],[75.6089,11.4849],[75.6008,11.5234],[75.5819,11.5498],[75.5853,11.5634],[75.5308,11.6937],[75.5061,11.7272],[75.3797,11.865],[75.3558,11.8577],[75.3076,11.9322],[75.3265,11.9359],[75.4002,11.9202],[75.3828,11.9455],[75.3934,11.9748],[75.3613,11.9512],[75.3317,11.9495],[75.3023,11.9661],[75.2805,12.0],[76.0,12.0],[76.0,11.0],[75.8608,11.0],[75.8328,11.0978]]]}},{"type":"Feature","properties":{},"geometry":{"type":"Polygon","coordinates":[[[75.2605,11.9978],[75.2767,11.9674],[75.2482,12.0],[75.2605,11.9978]]]}},{"type":"Feature","properties":{},"geometry":{"type":"Polygon","coordinates":[[[75.2788,12.0032],[75.2811,12.0106],[75.3298,12.0126],[75.3042,12.0432],[75.2643,12.0133],[75.2611,12.0],[75.2482,12.0],[75.2222,12.022],[75.2085,12.0084],[75.1937,12.0223],[75.1805,12.0773],[75.1309,12.2078],[75.1397,12.2486],[75.1267,12.2458],[75.1055,12.2213],[75.0986,12.269],[75.0829,12.3059],[75.0,12.4544],[75.0,13.0],[76.0,13.0],[76.0,12.0],[75.2788,12.0032]]]}},{"type":"Feature","properties":{},"geometry":{"type":"Polygon","coordinates":[[[75.0,13.0],[75.0,14.0],[76.0,14.0],[76.0,13.0],[75.0,13.0]]]}},{"type":"Feature","properties":{},"geometry":{"type":"Polygon","coordinates":[[[75.0,14.0],[75.0,15.0],[76.0,15.0],[76.0,14.0],[75.0,14.0]]]}},{"type":"Feature","properties":{},"geometry":{"type":"Polygon","coordinates":[[[75.0,15.0],[75.0,16.0],[76.0,16.0],[76.0,15.0],[75.0,15.0]]]}},{"type":"Feature","properties":{},"geometry":{"type":"Polygon","coordinates":[[[75.0,16.0],[75.0,17.0],[76.0,17.0],[76.0,16.0],[75.0,16.0]]]}},{"type":"Feature","properties":{},"geometry":{"type":"Polygon","coordinates":[[[75.0,17.0],[75.0,18.0],[76.0,18.0],[76.0,17.0],[75.0,17.0]]]}},{"type":"Feature","properties":{},"geometry":{"type":"Polygon","coordinates":[[[75.0,18.0],[75.0,19.0],[76.0,19.0],[76.0,18.0],[75.0,18.0]]]}},{"type":"Feature","properties":{},"geometry":{"type":"Polygon","coordinates":[[[75.0,19.0],[75.0,20.0],[76.0,20.0],[76.0,19.0],[75.0,19.0]]]}},{"type":"Feature","properties":{},"geometry":{"type":"Polygon","coordinates":[[[75.0,20.0],[75.0,21.0],[76.0,21.0],[76.0,20.0],[75.0,20.0]]]}},{"type":"Feature","properties":{},"geometry":{"type":"Polygon","coordinates":[[[75.0,21.0],[75.0,22.0],[76.0,22.0],[76.0,21.0],[75.0,21.0]]]}},{"type":"Feature","properties":{},"geometry":{"type":"Polygon","coordinates":[[[75.0,22.0],[75.0,23.0],[76.0,23.0],[76.0,22.0],[75.0,22.0]]]}},{"type":"Feature","properties":{},"geometry":{"type":"Polygon","coordinates":[[[75.0,23.0],[75.0,24.0],[76.0,24.0],[76.0,23.0],[75.0,23.0]]]}},{"type":"Feature","properties":{},"geometry":{"type":"Polygon","coordinates":[[[75.0,24.0],[75.0,25.0],[76.0,25.0],[76.0,24.0],[75.0,24.0]]]}},{"type":"Feature","properties":{},"geometry":{"type":"Polygon","coordinates":[[[75.0,25.0],[75.0,26.0],[76.0,26.0],[76.0,25.0],[75.0,25.0]]]}},{"type":"Feature","properties":{},"geometry":{"type":"Polygon","coordinates":[[[75.0,26.0],[75.0,27.0],[76.0,27.0],[76.0,26.0],[75.0,26.0]]]}},{"type":"Feature","properties":{},"geometry":{"type":"Polygon","coordinates":[[[75.0,27.0],[75.0,28.0],[76.0,28.0],[76.0,27.0],[75.0,27.0]]]}},{"type":"Feature","properties":{},"geometry":{"type":"Polygon","coordinates":[[[75.0,28.0],[75.0,29.0],[76.0,29.0],[76.0,28.0],[75.0,28.0]]]}},{"type":"Feature","properties":{},"geometry":{"type":"Polygon","coordinates":[[[76.0,30.0],[76.0,29.0],[75.0,29.0],[75.0,30.0],[76.0,30.0]]]}},{"type":"Feature","properties":{},"geometry":{"type":"Polygon","coordinates":[[[77.0,8.3651],[76.8801,8.5207],[76.8265,8.5698],[76.8137,8.6013],[76.7417,8.6845],[76.7313,8.708],[76.6956,8.7398],[76.6445,8.819],[76.5586,8.8907],[76.544,8.9125],[76.5481,8.9242],[76.5591,8.9252],[76.5733,8.9044],[76.6206,8.9254],[76.5816,8.9199],[76.5723,8.9316],[76.5933,8.9682],[76.6033,8.9732],[76.6576,8.9664],[76.6343,8.9869],[76.6685,9.0],[77.0,9.0],[77.0,8.3651]]]}},{"type":"Feature","properties":{},"geometry":{"type":"Polygon","coordinates":[[[76.6295,9.0],[76.6206,8.9871],[76.584,9.0],[76.6295,9.0]]]}},{"type":"Feature","properties":{},"geometry":{"type":"Polygon","coordinates":[[[76.5823,9.0],[76.5586,8.9521],[76.5511,8.9664],[76.5654,8.9943],[76.5388,8.9726],[76.5381,8.9391],[76.5281,8.947],[76.5144,9.0],[76.5823,9.0]]]}},{"type":"Feature","properties":{},"geometry":{"type":"Polygon","coordinates":[[[76.6685,9.0074],[76.6579,9.0107],[76.6295,9.0],[76.5144,9.0],[76.4605,9.1149],[76.4624,9.1383],[76.4691,9.1166],[76.4766,9.1166],[76.4828,9.1718],[76.4624,9.1514],[76.4282,9.2453],[76.4146,9.247],[76.4468,9.1596],[76.4487,9.1452],[76.4426,9.1452],[76.363,9.3252],[76.3118,9.493],[76.291,9.6332],[76.2971,9.6584],[76.2774,9.8093],[76.2468,9.8937],[76.2363,9.9527],[76.2515,9.9631],[76.2695,9.951],[76.291,9.9086],[76.2568,9.9086],[76.2669,9.876],[76.2774,9.8708],[76.2842,9.8912],[76.2883,9.8612],[76.2808,9.8428],[76.3,9.8478],[76.3047,9.8563],[76.2971,9.8708],[76.3086,9.8796],[76.3389,9.6994],[76.3462,9.6994],[76.3376,9.7893],[76.3462,9.8161],[76.3201,9.8616],[76.3327,9.8708],[76.3592,9.8161],[76.368,9.7156],[76.3941,9.6789],[76.3729,9.6243],[76.3533,9.5353],[76.3574,9.5207],[76.459,9.4973],[76.4771,9.5037],[76.5033,9.535],[76.4485,9.5634],[76.4282,9.5554],[76.407,9.5691],[76.4197,9.5942],[76.4146,9.6827],[76.4026,9.7106],[76.3941,9.7062],[76.3941,9.7472],[76.3804,9.7851],[76.3965,9.8227],[76.3941,9.8428],[76.3592,9.9154],[76.3115,9.9669],[76.2943,9.9513],[76.2731,10.0],[77.0,10.0],[77.0,9.0],[76.6685,9.0],[76.6685,9.0074]]]}},{"type":"Feature","properties":{},"geometry":{"type":"Polygon","coordinates":[[[76.2427,9.9875],[76.2282,9.9999],[76.2282,10.0],[76.2372,10.0],[76.2427,9.9875]]]}},{"type":"Feature","properties":{},"geometry":{"type":"Polygon","coordinates":[[[76.2731,10.0],[76.2739,10.0358],[76.2551,10.0477],[76.2451,10.1022],[76.2277,10.1096],[76.2153,10.1383],[76.2075,10.1171],[76.229,10.0659],[76.2372,10.0],[76.2282,10.0],[76.2146,10.0245],[76.1824,10.1057],[76.1846,10.1449],[76.1775,10.1706],[76.2241,10.1969],[76.2417,10.2239],[76.2402,10.239],[76.2228,10.2344],[76.2063,10.2629],[76.1948,10.2686],[76.2079,10.2346],[76.2017,10.1997],[76.1841,10.1894],[76.1605,10.2062],[76.1382,10.2611],[76.1061,10.3847],[76.0701,10.4328],[76.0524,10.514],[76.0081,10.5671],[76.0,10.6041],[76.0,11.0],[77.0,11.0],[77.0,10.0],[76.2731,10.0]]]}},{"type":"Feature","properties":{},"geometry":{"type":"Polygon","coordinates":[[[76.0,11.0],[76.0,12.0],[77.0,12.0],[77.0,11.0],[76.0,11.0]]]}},{"type":"Feature","properties":{},"geometry":{"type":"Polygon","coordinates":[[[76.0,12.0],[76.0,13.0],[77.0,13.0],[77.0,12.0],[76.0,12.0]]]}},{"type":"Feature","properties":{},"geometry":{"type":"Polygon","coordinates":[[[76.0,13.0],[76.0,14.0],[77.0,14.0],[77.0,13.0],[76.0,13.0]]]}},{"type":"Feature","properties":{},"geometry":{"type":"Polygon","coordinates":[[[76.0,14.0],[76.0,15.0],[77.0,15.0],[77.0,14.0],[76.0,14.0]]]}},{"type":"Feature","properties":{},"geometry":{"type":"Polygon","coordinates":[[[76.0,15.0],[76.0,16.0],[77.0,16.0],[77.0,15.0],[76.0,15.0]]]}},{"type":"Feature","properties":{},"geometry":{"type":"Polygon","coordinates":[[[76.0,16.0],[76.0,17.0],[77.0,17.0],[77.0,16.0],[76.0,16.0]]]}},{"type":"Feature","properties":{},"geometry":{"type":"Polygon","coordinates":[[[76.0,17.0],[76.0,18.0],[77.0,18.0],[77.0,17.0],[76.0,17.0]]]}},{"type":"Feature","properties":{},"geometry":{"type":"Polygon","coordinates":[[[76.0,18.0],[76.0,19.0],[77.0,19.0],[77.0,18.0],[76.0,18.0]]]}},{"type":"Feature","properties":{},"geometry":{"type":"Polygon","coordinates":[[[76.0,19.0],[76.0,20.0],[77.0,20.0],[77.0,19.0],[76.0,19.0]]]}},{"type":"Feature","properties":{},"geometry":{"type":"Polygon","coordinates":[[[76.0,20.0],[76.0,21.0],[77.0,21.0],[77.0,20.0],[76.0,20.0]]]}},{"type":"Feature","properties":{},"geometry":{"type":"Polygon","coordinates":[[[76.0,21.0],[76.0,22.0],[77.0,22.0],[77.0,21.0],[76.0,21.0]]]}},{"type":"Feature","properties":{},"geometry":{"type":"Polygon","coordinates":[[[76.0,22.0],[76.0,23.0],[77.0,23.0],[77.0,22.0],[76.0,22.0]]]}},{"type":"Feature","properties":{},"geometry":{"type":"Polygon","coordinates":[[[76.0,23.0],[76.0,24.0],[77.0,24.0],[77.0,23.0],[76.0,23.0]]]}},{"type":"Feature","properties":{},"geometry":{"type":"Polygon","coordinates":[[[76.0,24.0],[76.0,25.0],[77.0,25.0],[77.0,24.0],[76.0,24.0]]]}},{"type":"Feature","properties":{},"geometry":{"type":"Polygon","coordinates":[[[76.0,25.0],[76.0,26.0],[77.0,26.0],[77.0,25.0],[76.0,25.0]]]}},{"type":"Feature","properties":{},"geometry":{"type":"Polygon","coordinates":[[[76.0,26.0],[76.0,27.0],[77.0,27.0],[77.0,26.0],[76.0,26.0]]]}},{"type":"Feature","properties":{},"geometry":{"type":"Polygon","coordinates":[[[76.0,27.0],[76.0,28.0],[77.0,28.0],[77.0,27.0],[76.0,27.0]]]}},{"type":"Feature","properties":{},"geometry":{"type":"Polygon","coordinates":[[[76.0,28.0],[76.0,29.0],[77.0,29.0],[77.0,28.0],[76.0,28.0]]]}},{"type":"Feature","properties":{},"geometry":{"type":"Polygon","coordinates":[[[77.0,30.0],[77.0,29.0],[76.0,29.0],[76.0,30.0],[77.0,30.0]]]}},{"type":"Feature","properties":{},"geometry":{"type":"Polygon","coordinates":[[[77.9998,8.3449],[77.8062,8.2287],[77.7683,8.1815],[77.5952,8.139],[77.561,8.1146],[77.5653,8.0825],[77.5109,8.076],[77.4497,8.0875],[77.3156,8.1278],[77.263,8.1684],[77.2389,8.1751],[77.1288,8.2718],[77.0,8.3651],[77.0,9.0],[78.0,9.0],[77.9998,8.3449]]]}},{"type":"Feature","properties":{},"geometry":{"type":"Polygon","coordinates":[[[77.0,9.0],[77.0,10.0],[78.0,10.0],[78.0,9.0],[77.0,9.0]]]}},{"type":"Feature","properties":{},"geometry":{"type":"Polygon","coordinates":[[[77.0,10.0],[77.0,11.0],[78.0,11.0],[78.0,10.0],[77.0,10.0]]]}},{"type":"Feature","properties":{},"geometry":{"type":"Polygon","coordinates":[[[77.0,11.0],[77.0,12.0],[78.0,12.0],[78.0,11.0],[77.0,11.0]]]}},{"type":"Feature","properties":{},"geometry":{"type":"Polygon","coordinates":[[[77.0,12.0],[77.0,13.0],[78.0,13.0],[78.0,12.0],[77.0,12.0]]]}},{"type":"Feature","properties":{},"geometry":{"type":"Polygon","coordinates":[[[77.0,13.0],[77.0,14.0],[78.0,14.0],[78.0,13.0],[77.0,13.0]]]}},{"type":"Feature","properties":{},"geometry":{"type":"Polygon","coordinates":[[[77.0,14.0],[77.0,15.0],[78.0,15.0],[78.0,14.0],[77.0,14.0]]]}},{"type":"Feature","properties":{},"geometry":{"type":"Polygon","coordinates":[[[77.0,15.0],[77.0,16.0],[78.0,16.0],[78.0,15.0],[77.0,15.0]]]}},{"type":"Feature","properties":{},"geometry":{"type":"Polygon","coordinates":[[[77.0,16.0],[77.0,17.0],[78.0,17.0],[78.0,16.0],[77.0,16.0]]]}},{"type":"Feature","properties":{},"geometry":{"type":"Polygon","coordinates":[[[77.0,17.0],[77.0,18.0],[78.0,18.0],[78.0,17.0],[77.0,17.0]]]}},{"type":"Feature","properties":{},"geometry":{"type":"Polygon","coordinates":[[[77.0,18.0],[77.0,19.0],[78.0,19.0],[78.0,18.0],[77.0,18.0]]]}},{"type":"Feature","properties":{},"geometry":{"type":"Polygon","coordinates":[[[77.0,19.0],[77.0,20.0],[78.0,20.0],[78.0,19.0],[77.0,19.0]]]}},{"type":"Feature","properties":{},"geometry":{"type":"Polygon","coordinates":[[[77.0,20.0],[77.0,21.0],[78.0,21.0],[78.0,20.0],[77.0,20.0]]]}},{"type":"Feature","properties":{},"geometry":{"type":"Polygon","coordinates":[[[77.0,21.0],[77.0,22.0],[78.0,22.0],[78.0,21.0],[77.0,21.0]]]}},{"type":"Feature","properties":{},"geometry":{"type":"Polygon","coordinates":[[[77.0,22.0],[77.0,23.0],[78.0,23.0],[78.0,22.0],[77.0,22.0]]]}},{"type":"Feature","properties":{},"geometry":{"type":"Polygon","coordinates":[[[77.0,23.0],[77.0,24.0],[78.0,24.0],[78.0,23.0],[77.0,23.0]]]}},{"type":"Feature","properties":{},"geometry":{"type":"Polygon","coordinates":[[[77.0,24.0],[77.0,25.0],[78.0,25.0],[78.0,24.0],[77.0,24.0]]]}},{"type":"Feature","properties":{},"geometry":{"type":"Polygon","coordinates":[[[77.0,25.0],[77.0,26.0],[78.0,26.0],[78.0,25.0],[77.0,25.0]]]}},{"type":"Feature","properties":{},"geometry":{"type":"Polygon","coordinates":[[[77.0,26.0],[77.0,27.0],[78.0,27.0],[78.0,26.0],[77.0,26.0]]]}},{"type":"Feature","properties":{},"geometry":{"type":"Polygon","coordinates":[[[77.0,27.0],[77.0,28.0],[78.0,28.0],[78.0,27.0],[77.0,27.0]]]}},{"type":"Feature","properties":{},"geometry":{"type":"Polygon","coordinates":[[[77.0,28.0],[77.0,29.0],[78.0,29.0],[78.0,28.0],[77.0,28.0]]]}},{"type":"Feature","properties":{},"geometry":{"type":"Polygon","coordinates":[[[78.0,30.0],[78.0,29.0],[77.0,29.0],[77.0,30.0],[78.0,30.0]]]}},{"type":"Feature","properties":{},"geometry":{"type":"Polygon","coordinates":[[[78.2398,8.9656],[78.1828,8.8771],[78.1745,8.7944],[78.1624,8.7535],[78.2005,8.7697],[78.2102,8.7883],[78.2152,8.7654],[78.1692,8.7336],[78.1405,8.6806],[78.1426,8.6579],[78.1146,8.6579],[78.1355,8.6258],[78.1423,8.5931],[78.1283,8.488],[78.0798,8.432],[78.0559,8.3637],[78.0,8.345],[78.0,9.0],[78.2821,9.0],[78.2398,8.9656]]]}},{"type":"Feature","properties":{},"geometry":{"type":"Polygon","coordinates":[[[78.9808,9.6672],[78.9773,9.6379],[78.9383,9.5837],[78.9133,9.4743],[78.9153,9.453],[78.9334,9.4164],[79.0,9.3496],[79.0,9.2769],[78.9568,9.2748],[78.9185,9.2516],[78.861,9.249],[78.7771,9.2194],[78.7278,9.1874],[78.6763,9.1841],[78.6613,9.1772],[78.6489,9.1514],[78.6348,9.1446],[78.4499,9.1166],[78.3775,9.0775],[78.2821,9.0],[78.0,9.0],[78.0,10.0],[79.0,10.0],[79.0,9.6937],[78.9808,9.6672]]]}},{"type":"Feature","properties":{},"geometry":{"type":"Polygon","coordinates":[[[78.0,10.0],[78.0,11.0],[79.0,11.0],[79.0,10.0],[78.0,10.0]]]}},{"type":"Feature","properties":{},"geometry":{"type":"Polygon","coordinates":[[[78.0,11.0],[78.0,12.0],[79.0,12.0],[79.0,11.0],[78.0,11.0]]]}},{"type":"Feature","properties":{},"geometry":{"type":"Polygon","coordinates":[[[78.0,12.0],[78.0,13.0],[79.0,13.0],[79.0,12.0],[78.0,12.0]]]}},{"type":"Feature","properties":{},"geometry":{"type":"Polygon","coordinates":[[[78.0,13.0],[78.0,14.0],[79.0,14.0],[79.0,13.0],[78.0,13.0]]]}},{"type":"Feature","properties":{},"geometry":{"type":"Polygon","coordinates":[[[78.0,14.0],[78.0,15.0],[79.0,15.0],[79.0,14.0],[78.0,14.0]]]}},{"type":"Feature","properties":{},"geometry":{"type":"Polygon","coordinates":[[[78.0,15.0],[78.0,16.0],[79.0,16.0],[79.0,15.0],[78.0,15.0]]]}},{"type":"Feature","properties":{},"geometry":{"type":"Polygon","coordinates":[[[78.0,16.0],[78.0,17.0],[79.0,17.0],[79.0,16.0],[78.0,16.0]]]}},{"type":"Feature","properties":{},"geometry":{"type":"Polygon","coordinates":[[[78.0,17.0],[78.0,18.0],[79.0,18.0],[79.0,17.0],[78.0,17.0]]]}},{"type":"Feature","properties":{},"geometry":{"type":"Polygon","coordinates":[[[78.0,18.0],[78.0,19.0],[79.0,19.0],[79.0,18.0],[78.0,18.0]]]}},{"type":"Feature","properties":{},"geometry":{"type":"Polygon","coordinates":[[[78.0,19.0],[78.0,20.0],[79.0,20.0],[79.0,19.0],[78.0,19.0]]]}},{"type":"Feature","properties":{},"geometry":{"type":"Polygon","coordinates":[[[78.0,20.0],[78.0,21.0],[79.0,21.0],[79.0,20.0],[78.0,20.0]]]}},{"type":"Feature","properties":{},"geometry":{"type":"Polygon","coordinates":[[[78.0,21.0],[78.0,22.0],[79.0,22.0],[79.0,21.0],[78.0,21.0]]]}},{"type":"Feature","properties":{},"geometry":{"type":"Polygon","coordinates":[[[78.0,22.0],[78.0,23.0],[79.0,23.0],[79.0,22.0],[78.0,22.0]]]}},{"type":"Feature","properties":{},"geometry":{"type":"Polygon","coordinates":[[[78.0,23.0],[78.0,24.0],[79.0,24.0],[79.0,23.0],[78.0,23.0]]]}},{"type":"Feature","properties":{},"geometry":{"type":"Polygon","coordinates":[[[78.0,24.0],[78.0,25.0],[79.0,25.0],[79.0,24.0],[78.0,24.0]]]}},{"type":"Feature","properties":{},"geometry":{"type":"Polygon","coordinates":[[[78.0,25.0],[78.0,26.0],[79.0,26.0],[79.0,25.0],[78.0,25.0]]]}},{"type":"Feature","properties":{},"geometry":{"type":"Polygon","coordinates":[[[78.0,26.0],[78.0,27.0],[79.0,27.0],[79.0,26.0],[78.0,26.0]]]}},{"type":"Feature","properties":{},"geometry":{"type":"Polygon","coordinates":[[[78.0,27.0],[78.0,28.0],[79.0,28.0],[79.0,27.0],[78.0,27.0]]]}},{"type":"Feature","properties":{},"geometry":{"type":"Polygon","coordinates":[[[78.0,28.0],[78.0,29.0],[79.0,29.0],[79.0,28.0],[78.0,28.0]]]}},{"type":"Feature","properties":{},"geometry":{"type":"Polygon","coordinates":[[[79.0,30.0],[79.0,29.0],[78.0,29.0],[78.0,30.0],[79.0,30.0]]]}},{"type":"Feature","properties":{},"geometry":{"type":"Polygon","coordinates":[[[79.9821,6.441],[79.9642,6.4719],[79.9779,6.4787],[79.9696,6.5353],[79.863,6.8072],[79.8482,6.8902],[79.8482,6.9621],[79.8618,7.0],[80.0,7.0],[80.0,6.3828],[79.9821,6.441]]]}},{"type":"Feature","properties":{},"geometry":{"type":"Polygon","coordinates":[[[79.8618,7.0001],[79.8137,7.1807],[79.8203,7.2055],[79.8434,7.131],[79.8543,7.123],[79.8618,7.1367],[79.8616,7.1674],[79.8543,7.1918],[79.8263,7.2104],[79.8338,7.2328],[79.7786,7.6027],[79.793,7.6027],[79.802,7.6593],[79.7888,7.6882],[79.786,7.7434],[79.7603,7.8684],[79.7187,8.0],[79.8102,7.9865],[79.8294,8.0],[80.0,8.0],[80.0,7.0],[79.8618,7.0001]]]}},{"type":"Feature","properties":{},"geometry":{"type":"Polygon","coordinates":[[[79.8911,9.0],[79.9097,8.9732],[79.8858,8.9762],[79.8604,9.0],[79.8911,9.0]]]}},{"type":"Feature","properties":{},"geometry":{"type":"Polygon","coordinates":[[[79.6968,8.0983],[79.6968,8.1303],[79.7036,8.1235],[79.7072,8.1421],[79.6968,8.2191],[79.7288,8.2497],[79.749,8.3039],[79.7786,8.35],[79.7445,8.2812],[79.7571,8.2637],[79.7786,8.26],[79.7588,8.2129],[79.7461,8.2061],[79.7445,8.1645],[79.7275,8.1109],[79.7295,8.0811],[79.752,8.0546],[79.7319,8.0131],[79.7502,8.0],[79.7187,8.0],[79.6968,8.0983]]]}},{"type":"Feature","properties":{},"geometry":{"type":"Polygon","coordinates":[[[79.8338,8.0031],[79.8189,8.0402],[79.7935,8.0728],[79.8272,8.1365],[79.8135,8.1713],[79.8135,8.2129],[79.8047,8.229],[79.8272,8.2777],[79.8482,8.4382],[79.8659,8.4614],[79.8738,8.5381],[79.9165,8.576],[79.9417,8.6425],[79.9505,8.7398],[79.9264,8.8019],[79.9302,8.8844],[79.9155,8.9385],[79.9471,8.9487],[80.0,8.996],[80.0,8.0],[79.8294,8.0],[79.8338,8.0031]]]}},{"type":"Feature","properties":{},"geometry":{"type":"Polygon","coordinates":[[[79.9159,8.9468],[79.9072,8.9357],[79.9109,8.953],[79.9159,8.9468]]]}},{"type":"Feature","properties":{},"geometry":{"type":"Polygon","coordinates":[[[79.2301,10.0],[79.1419,9.8912],[79.1008,9.8261],[79.0941,9.8023],[79.0388,9.7472],[79.0,9.6937],[79.0,10.0],[79.2301,10.0]]]}},{"type":"Feature","properties":{},"geometry":{"type":"Polygon","coordinates":[[[79.0399,9.3147],[79.1156,9.2912],[79.2517,9.2885],[79.3201,9.3233],[79.3411,9.3159],[79.3457,9.3065],[79.3337,9.2783],[79.3535,9.2409],[79.4536,9.159],[79.4403,9.1514],[79.424,9.1591],[79.361,9.2134],[79.2927,9.2503],[79.1654,9.2742],[79.1294,9.2563],[79.0872,9.2538],[79.0,9.2769],[79.0,9.3496],[79.0399,9.3147]]]}},{"type":"Feature","properties":{},"geometry":{"type":"Polygon","coordinates":[[[79.7147,9.4851],[79.6895,9.4836],[79.666,9.4913],[79.6558,9.5039],[79.6587,9.5554],[79.6763,9.535],[79.7192,9.5244],[79.7308,9.5002],[79.7147,9.4851]]]}},{"type":"Feature","properties":{},"geometry":{"type":"Polygon","coordinates":[[[79.703,9.08],[79.7012,9.0992],[79.7141,9.1036],[79.7588,9.1036],[79.799,9.0933],[79.8823,9.0538],[79.9164,9.021],[79.8543,9.0415],[79.8911,9.0],[79.8604,9.0],[79.7998,9.049],[79.703,9.08]]]}},{"type":"Feature","properties":{},"geometry":{"type":"Polygon","coordinates":[[[79.8649,9.6515],[79.8407,9.6994],[79.8605,9.7563],[79.8823,9.7609],[79.8941,9.7574],[79.8884,9.7236],[79.8947,9.6882],[79.9028,9.6789],[79.9264,9.6789],[79.9336,9.6547],[79.9734,9.6338],[79.9779,9.6243],[79.9578,9.6172],[79.9265,9.6295],[79.8958,9.6175],[79.8649,9.6515]]]}},{"type":"Feature","properties":{},"geometry":{"type":"Polygon","coordinates":[[[80.0,9.6751],[79.947,9.6932],[79.937,9.7274],[79.9097,9.7683],[79.9707,9.8151],[80.0,9.8219],[80.0,9.6751]]]}},{"type":"Feature","properties":{},"geometry":{"type":"Polygon","coordinates":[[[79.6647,9.0702],[79.6442,9.0702],[79.6312,9.0671],[79.6436,9.0749],[79.6647,9.0702]]]}},{"type":"Feature","properties":{},"geometry":{"type":"Polygon","coordinates":[[[79.554,9.091],[79.5533,9.0845],[79.5514,9.0931],[79.554,9.091]]]}},{"type":"Feature","properties":{},"geometry":{"type":"Polygon","coordinates":[[[79.0881,9.1943],[79.083,9.191],[79.0586,9.2006],[79.0638,9.2049],[79.0881,9.1943]]]}},{"type":"Feature","properties":{},"geometry":{"type":"Polygon","coordinates":[[[79.9835,9.3048],[79.9913,9.2883],[79.9801,9.2777],[79.9716,9.2929],[79.9835,9.3048]]]}},{"type":"Feature","properties":{},"geometry":{"type":"Polygon","coordinates":[[[79.8595,9.6055],[79.8577,9.566],[79.8158,9.5712],[79.8094,9.5801],[79.8145,9.6228],[79.834,9.5932],[79.8464,9.5973],[79.8411,9.613],[79.8595,9.6055]]]}},{"type":"Feature","properties":{},"geometry":{"type":"Polygon","coordinates":[[[79.8508,11.0],[79.8407,10.9501],[79.8503,10.5921],[79.8596,10.5515],[79.8638,10.3787],[79.8513,10.2822],[79.7951,10.2692],[79.7786,10.2754],[79.78,10.2966],[79.7571,10.3091],[79.6331,10.3286],[79.6213,10.3242],[79.6141,10.3096],[79.6618,10.3071],[79.7036,10.289],[79.759,10.2822],[79.7737,10.2737],[79.7725,10.2617],[79.7598,10.2582],[79.5567,10.2987],[79.5518,10.3133],[79.604,10.3291],[79.6071,10.336],[79.5869,10.3437],[79.5677,10.3359],[79.5286,10.3383],[79.5322,10.3232],[79.4597,10.3083],[79.3981,10.3247],[79.2861,10.2528],[79.2722,10.2344],[79.2692,10.1978],[79.24,10.1798],[79.2443,10.0849],[79.2542,10.0543],[79.2791,10.0358],[79.2301,10.0],[79.0,10.0],[79.0,11.0],[79.8508,11.0]]]}},{"type":"Feature","properties":{},"geometry":{"type":"Polygon","coordinates":[[[79.8618,11.978],[79.8203,11.8786],[79.8032,11.7961],[79.7859,11.7692],[79.752,11.577],[79.786,11.4262],[79.7974,11.4349],[79.793,11.4535],[79.8093,11.4514],[79.8167,11.4431],[79.822,11.3911],[79.8103,11.3789],[79.7693,11.3809],[79.7498,11.3737],[79.6843,11.3122],[79.6763,11.2965],[79.752,11.3405],[79.7593,11.3583],[79.7969,11.359],[79.833,11.342],[79.835,11.2639],[79.8553,11.1599],[79.8508,11.0],[79.0,11.0],[79.0,12.0],[79.861,12.0],[79.8618,11.978]]]}},{"type":"Feature","properties":{},"geometry":{"type":"Polygon","coordinates":[[[79.9439,12.2178],[79.9531,12.2136],[80.0,12.2386],[79.9275,12.1299],[79.897,12.0688],[79.8701,12.0374],[79.861,12.0],[79.0,12.0],[79.0,13.0],[80.0,13.0],[80.0,12.2535],[79.9522,12.2299],[79.9439,12.2178]]]}},{"type":"Feature","properties":{},"geometry":{"type":"Polygon","coordinates":[[[80.0,13.0],[79.0,13.0],[79.0,14.0],[80.0,14.0],[80.0,13.0]]]}},{"type":"Feature","properties":{},"geometry":{"type":"Polygon","coordinates":[[[80.0,14.0],[79.0,14.0],[79.0,15.0],[80.0,15.0],[80.0,14.0]]]}},{"type":"Feature","properties":{},"geometry":{"type":"Polygon","coordinates":[[[80.0,15.0],[79.0,15.0],[79.0,16.0],[80.0,16.0],[80.0,15.0]]]}},{"type":"Feature","properties":{},"geometry":{"type":"Polygon","coordinates":[[[80.0,16.0],[79.0,16.0],[79.0,17.0],[80.0,17.0],[80.0,16.0]]]}},{"type":"Feature","properties":{},"geometry":{"type":"Polygon","coordinates":[[[80.0,17.0],[79.0,17.0],[79.0,18.0],[80.0,18.0],[80.0,17.0]]]}},{"type":"Feature","properties":{},"geometry":{"type":"Polygon","coordinates":[[[80.0,18.0],[79.0,18.0],[79.0,19.0],[80.0,19.0],[80.0,18.0]]]}},{"type":"Feature","properties":{},"geometry":{"type":"Polygon","coordinates":[[[80.0,19.0],[79.0,19.0],[79.0,20.0],[80.0,20.0],[80.0,19.0]]]}},{"type":"Feature","properties":{},"geometry":{"type":"Polygon","coordinates":[[[80.0,20.0],[79.0,20.0],[79.0,21.0],[80.0,21.0],[80.0,20.0]]]}},{"type":"Feature","properties":{},"geometry":{"type":"Polygon","coordinates":[[[80.0,21.0],[79.0,21.0],[79.0,22.0],[80.0,22.0],[80.0,21.0]]]}},{"type":"Feature","properties":{},"geometry":{"type":"Polygon","coordinates":[[[80.0,22.0],[79.0,22.0],[79.0,23.0],[80.0,23.0],[80.0,22.0]]]}},{"type":"Feature","properties":{},"geometry":{"type":"Polygon","coordinates":[[[80.0,23.0],[79.0,23.0],[79.0,24.0],[80.0,24.0],[80.0,23.0]]]}},{"type":"Feature","properties":{},"geometry":{"type":"Polygon","coordinates":[[[80.0,24.0],[79.0,24.0],[79.0,25.0],[80.0,25.0],[80.0,24.0]]]}},{"type":"Feature","properties":{},"geometry":{"type":"Polygon","coordinates":[[[80.0,25.0],[79.0,25.0],[79.0,26.0],[80.0,26.0],[80.0,25.0]]]}},{"type":"Feature","properties":{},"geometry":{"type":"Polygon","coordinates":[[[80.0,26.0],[79.0,26.0],[79.0,27.0],[80.0,27.0],[80.0,26.0]]]}},{"type":"Feature","properties":{},"geometry":{"type":"Polygon","coordinates":[[[80.0,27.0],[79.0,27.0],[79.0,28.0],[80.0,28.0],[80.0,27.0]]]}},{"type":"Feature","properties":{},"geometry":{"type":"Polygon","coordinates":[[[80.0,28.0],[79.0,28.0],[79.0,29.0],[80.0,29.0],[80.0,28.0]]]}},{"type":"Feature","properties":{},"geometry":{"type":"Polygon","coordinates":[[[80.0,30.0],[80.0,29.0],[79.0,29.0],[79.0,30.0],[80.0,30.0]]]}}]}